{
"type": "FeatureCollection",
"name": "points2018",
"crs": { "type": "name", "properties": { "name": "urn:ogc:def:crs:EPSG::3857" } },
"features": [
{ "type": "Feature", "properties": { "plz": "53474", "Jahr": "2018", "Ort": "Ahrweiler", "Land": "DE" }, "geometry": { "type": "Point", "coordinates": [ 792416.748923198785633, 6541144.573827808722854 ] } },
{ "type": "Feature", "properties": { "plz": "1181", "Jahr": "2018", "Ort": "Amstelveen", "Land": "NL" }, "geometry": { "type": "Point", "coordinates": [ 539431.807673407834955, 6855035.623441240750253 ] } },
{ "type": "Feature", "properties": { "plz": "1077", "Jahr": "2018", "Ort": "Amsterdam", "Land": "NL" }, "geometry": { "type": "Point", "coordinates": [ 545105.243107498972677, 6867661.03498587012291 ] } },
{ "type": "Feature", "properties": { "plz": "65520", "Jahr": "2018", "Ort": "Bad Camberg", "Land": "DE" }, "geometry": { "type": "Point", "coordinates": [ 919091.507631298038177, 6498217.067416469566524 ] } },
{ "type": "Feature", "properties": { "plz": "50126", "Jahr": "2018", "Ort": "Bergheim", "Land": "DE" }, "geometry": { "type": "Point", "coordinates": [ 739285.062776766484603, 6613117.892681659199297 ] } },
{ "type": "Feature", "properties": { "plz": "51427", "Jahr": "2018", "Ort": "Bergisch Gladbach", "Land": "DE" }, "geometry": { "type": "Point", "coordinates": [ 793254.943991059088148, 6619971.49424387421459 ] } },
{ "type": "Feature", "properties": { "plz": "5427", "Jahr": "2018", "Ort": "Boekel", "Land": "NL" }, "geometry": { "type": "Point", "coordinates": [ 631504.306510087219067, 6728631.968331647105515 ] } },
{ "type": "Feature", "properties": { "plz": "53127", "Jahr": "2018", "Ort": "Bonn-Ippendorf", "Land": "DE" }, "geometry": { "type": "Point", "coordinates": [ 788231.265246087568812, 6568625.869903613813221 ] } },
{ "type": "Feature", "properties": { "plz": "74336", "Jahr": "2018", "Ort": "Brackenheim", "Land": "DE" }, "geometry": { "type": "Point", "coordinates": [ 1009234.060579891665839, 6288132.381538193672895 ] } },
{ "type": "Feature", "properties": { "plz": "41379", "Jahr": "2018", "Ort": "Brüggen", "Land": "DE" }, "geometry": { "type": "Point", "coordinates": [ 688316.894117829971947, 6664378.270324151962996 ] } },
{ "type": "Feature", "properties": { "plz": "6846", "Jahr": "2018", "Ort": "Dessau-Roßlau", "Land": "DE" }, "geometry": { "type": "Point", "coordinates": [ 1362951.346844268962741, 6769642.929454489611089 ] } },
{ "type": "Feature", "properties": { "plz": "52353", "Jahr": "2018", "Ort": "Düren", "Land": "DE" }, "geometry": { "type": "Point", "coordinates": [ 717805.805857282946818, 6588889.481733560562134 ] } },
{ "type": "Feature", "properties": { "plz": "24904", "Jahr": "2018", "Ort": "Flensburg", "Land": "DE" }, "geometry": { "type": "Point", "coordinates": [ 1050163.533754768781364, 7319870.905696117319167 ] } },
{ "type": "Feature", "properties": { "plz": "55239", "Jahr": "2018", "Ort": "Gau-Odernheim", "Land": "DE" }, "geometry": { "type": "Point", "coordinates": [ 912226.97642877115868, 6408871.941321935504675 ] } },
{ "type": "Feature", "properties": { "plz": "65462", "Jahr": "2018", "Ort": "Ginsheim-Gustavsburg", "Land": "DE" }, "geometry": { "type": "Point", "coordinates": [ 926773.268232522183098, 6443611.150070556439459 ] } },
{ "type": "Feature", "properties": { "plz": "67229", "Jahr": "2018", "Ort": "Großkarlbach", "Land": "DE" }, "geometry": { "type": "Point", "coordinates": [ 915444.956547974259593, 6366833.061183089390397 ] } },
{ "type": "Feature", "properties": { "plz": "51643", "Jahr": "2018", "Ort": "Gummersbach", "Land": "DE" }, "geometry": { "type": "Point", "coordinates": [ 841920.552478329860605, 6626122.76351345796138 ] } },
{ "type": "Feature", "properties": { "plz": "33330", "Jahr": "2018", "Ort": "Gütersloh", "Land": "DE" }, "geometry": { "type": "Point", "coordinates": [ 932727.074150361586362, 6783262.376685312017798 ] } },
{ "type": "Feature", "properties": { "plz": "58099", "Jahr": "2018", "Ort": "Hagen", "Land": "DE" }, "geometry": { "type": "Point", "coordinates": [ 831851.021981940139085, 6684349.602453425526619 ] } },
{ "type": "Feature", "properties": { "plz": "6132", "Jahr": "2018", "Ort": "Halle", "Land": "DE" }, "geometry": { "type": "Point", "coordinates": [ 1332681.904339773813263, 6707036.975046969018877 ] } },
{ "type": "Feature", "properties": { "plz": "46499", "Jahr": "2018", "Ort": "Hamminkeln", "Land": "DE" }, "geometry": { "type": "Point", "coordinates": [ 733255.734138796688057, 6751587.619880655780435 ] } },
{ "type": "Feature", "properties": { "plz": "25746", "Jahr": "2018", "Ort": "Heide", "Land": "DE" }, "geometry": { "type": "Point", "coordinates": [ 1012278.335207029944286, 7207156.136469116434455 ] } },
{ "type": "Feature", "properties": { "plz": "46359", "Jahr": "2018", "Ort": "Heiden", "Land": "DE" }, "geometry": { "type": "Point", "coordinates": [ 771908.463033165200613, 6768594.852072027511895 ] } },
{ "type": "Feature", "properties": { "plz": "52525", "Jahr": "2018", "Ort": "Heinsberg", "Land": "DE" }, "geometry": { "type": "Point", "coordinates": [ 678972.246795446029864, 6632892.393857760354877 ] } },
{ "type": "Feature", "properties": { "plz": "55469", "Jahr": "2018", "Ort": "Holzbach", "Land": "DE" }, "geometry": { "type": "Point", "coordinates": [ 838442.320578795392066, 6438347.943896965123713 ] } },
{ "type": "Feature", "properties": { "plz": "66424", "Jahr": "2018", "Ort": "Homburg", "Land": "DE" }, "geometry": { "type": "Point", "coordinates": [ 816421.343915548291989, 6329061.420628259889781 ] } },
{ "type": "Feature", "properties": { "plz": "55218", "Jahr": "2018", "Ort": "Ingelheim", "Land": "DE" }, "geometry": { "type": "Point", "coordinates": [ 896659.790550023433752, 6442038.750453853048384 ] } },
{ "type": "Feature", "properties": { "plz": "85049", "Jahr": "2018", "Ort": "Ingolstadt", "Land": "DE" }, "geometry": { "type": "Point", "coordinates": [ 1272366.72259682440199, 6234739.265067702159286 ] } },
{ "type": "Feature", "properties": { "plz": "6020", "Jahr": "2018", "Ort": "Innsbruck", "Land": "AT" }, "geometry": { "type": "Point", "coordinates": [ 1268340.605226534651592, 5985485.621991768479347 ] } },
{ "type": "Feature", "properties": { "plz": "26441", "Jahr": "2018", "Ort": "Jever", "Land": "DE" }, "geometry": { "type": "Point", "coordinates": [ 879261.059342648251913, 7089623.960096652619541 ] } },
{ "type": "Feature", "properties": { "plz": "4020", "Jahr": "2018", "Ort": "Linz", "Land": "AT" }, "geometry": { "type": "Point", "coordinates": [ 1592363.281255110166967, 6156165.451473787426949 ] } },
{ "type": "Feature", "properties": { "plz": "66679", "Jahr": "2018", "Ort": "Losheim am See", "Land": "DE" }, "geometry": { "type": "Point", "coordinates": [ 750853.868165187770501, 6361578.379990363493562 ] } },
{ "type": "Feature", "properties": { "plz": "19288", "Jahr": "2018", "Ort": "Ludwigslust", "Land": "DE" }, "geometry": { "type": "Point", "coordinates": [ 1280200.373788179596886, 7044415.195926575921476 ] } },
{ "type": "Feature", "properties": { "plz": "6005", "Jahr": "2018", "Ort": "Luzern", "Land": "CH" }, "geometry": { "type": "Point", "coordinates": [ 924794.124218385084532, 5950457.829713333398104 ] } },
{ "type": "Feature", "properties": { "plz": "53894", "Jahr": "2018", "Ort": "Mechernich", "Land": "DE" }, "geometry": { "type": "Point", "coordinates": [ 740779.263149361358956, 6549177.201030645519495 ] } },
{ "type": "Feature", "properties": { "plz": "2340", "Jahr": "2018", "Ort": "Moedling", "Land": "AT" }, "geometry": { "type": "Point", "coordinates": [ 1812356.424981534248218, 6120735.619477666914463 ] } },
{ "type": "Feature", "properties": { "plz": "48155", "Jahr": "2018", "Ort": "Münster", "Land": "DE" }, "geometry": { "type": "Point", "coordinates": [ 848467.389473145012744, 6793367.909957880154252 ] } },
{ "type": "Feature", "properties": { "plz": "89278", "Jahr": "2018", "Ort": "Nersingen", "Land": "DE" }, "geometry": { "type": "Point", "coordinates": [ 1126780.55777814402245, 6178264.761463687755167 ] } },
{ "type": "Feature", "properties": { "plz": "41464", "Jahr": "2018", "Ort": "Neuss", "Land": "DE" }, "geometry": { "type": "Point", "coordinates": [ 744987.412367980694398, 6656451.365773752331734 ] } },
{ "type": "Feature", "properties": { "plz": "17235", "Jahr": "2018", "Ort": "Neustrelitz", "Land": "DE" }, "geometry": { "type": "Point", "coordinates": [ 1454911.220505054108799, 7050037.345236964523792 ] } },
{ "type": "Feature", "properties": { "plz": "16727", "Jahr": "2018", "Ort": "Oberkrämer", "Land": "DE" }, "geometry": { "type": "Point", "coordinates": [ 1458341.842861161567271, 6928853.315493203699589 ] } },
{ "type": "Feature", "properties": { "plz": "63065", "Jahr": "2018", "Ort": "Offenbach am Main", "Land": "DE" }, "geometry": { "type": "Point", "coordinates": [ 975102.158027446479537, 6464581.033510938286781 ] } },
{ "type": "Feature", "properties": { "plz": "349", "Jahr": "2018", "Ort": "Oslo", "Land": "NO" }, "geometry": { "type": "Point", "coordinates": [ 1195396.311210418585688, 8380157.569694327190518 ] } },
{ "type": "Feature", "properties": { "plz": "8640", "Jahr": "2018", "Ort": "Rapperswil SG", "Land": "CH" }, "geometry": { "type": "Point", "coordinates": [ 982323.082964719855227, 5979157.992956020869315 ] } },
{ "type": "Feature", "properties": { "plz": "21465", "Jahr": "2018", "Ort": "Reinbek", "Land": "DE" }, "geometry": { "type": "Point", "coordinates": [ 1140967.723682284122333, 7077856.049402238801122 ] } },
{ "type": "Feature", "properties": { "plz": "42853", "Jahr": "2018", "Ort": "Remscheid", "Land": "DE" }, "geometry": { "type": "Point", "coordinates": [ 800925.67813216871582, 6653170.652752358466387 ] } },
{ "type": "Feature", "properties": { "plz": "25821", "Jahr": "2018", "Ort": "Reußenköge", "Land": "DE" }, "geometry": { "type": "Point", "coordinates": [ 992078.413184389821254, 7285804.178802086040378 ] } },
{ "type": "Feature", "properties": { "plz": "53757", "Jahr": "2018", "Ort": "Sankt Augustin", "Land": "DE" }, "geometry": { "type": "Point", "coordinates": [ 800249.355640678899363, 6581663.952674273401499 ] } },
{ "type": "Feature", "properties": { "plz": "65388", "Jahr": "2018", "Ort": "Schlangenbad", "Land": "DE" }, "geometry": { "type": "Point", "coordinates": [ 901931.802066155592911, 6462453.883959318511188 ] } },
{ "type": "Feature", "properties": { "plz": "66839", "Jahr": "2018", "Ort": "Schmelz", "Land": "DE" }, "geometry": { "type": "Point", "coordinates": [ 1303654.512556131463498, 6451050.367441810667515 ] } },
{ "type": "Feature", "properties": { "plz": "65824", "Jahr": "2018", "Ort": "Schwalbach \/Ts.", "Land": "DE" }, "geometry": { "type": "Point", "coordinates": [ 950279.395320208277553, 6472075.662554222159088 ] } },
{ "type": "Feature", "properties": { "plz": "28790", "Jahr": "2018", "Ort": "Schwanewede", "Land": "DE" }, "geometry": { "type": "Point", "coordinates": [ 956311.319650298682973, 7025506.674357219599187 ] } },
{ "type": "Feature", "properties": { "plz": "58332", "Jahr": "2018", "Ort": "Schwelm", "Land": "DE" }, "geometry": { "type": "Point", "coordinates": [ 811799.00604596955236, 6671687.092854530550539 ] } },
{ "type": "Feature", "properties": { "plz": "53721", "Jahr": "2018", "Ort": "Siegburg", "Land": "DE" }, "geometry": { "type": "Point", "coordinates": [ 802200.222288866760209, 6584699.588162573985755 ] } },
{ "type": "Feature", "properties": { "plz": "6370", "Jahr": "2018", "Ort": "Stans", "Land": "CH" }, "geometry": { "type": "Point", "coordinates": [ 930980.958324253675528, 5935418.994840379804373 ] } },
{ "type": "Feature", "properties": { "plz": "2630", "Jahr": "2018", "Ort": "Taastrup", "Land": "DK" }, "geometry": { "type": "Point", "coordinates": [ 1368290.847954014316201, 7489374.730687599629164 ] } },
{ "type": "Feature", "properties": { "plz": "89077", "Jahr": "2018", "Ort": "Ulm", "Land": "DE" }, "geometry": { "type": "Point", "coordinates": [ 1112443.786346759647131, 6173201.974511709995568 ] } },
{ "type": "Feature", "properties": { "plz": "88444", "Jahr": "2018", "Ort": "Ummendorf", "Land": "DE" }, "geometry": { "type": "Point", "coordinates": [ 1094357.795911429449916, 6117380.333073138259351 ] } },
{ "type": "Feature", "properties": { "plz": "55483", "Jahr": "2018", "Ort": "Unzenberg", "Land": "DE" }, "geometry": { "type": "Point", "coordinates": [ 828254.223156757187098, 6440979.338448881171644 ] } },
{ "type": "Feature", "properties": { "plz": "42549", "Jahr": "2018", "Ort": "Velbert", "Land": "DE" }, "geometry": { "type": "Point", "coordinates": [ 785767.925131922587752, 6681368.746355446055532 ] } },
{ "type": "Feature", "properties": { "plz": "6721", "Jahr": "2018", "Ort": "WD Bennekom", "Land": "NL" }, "geometry": { "type": "Point", "coordinates": [ 631595.717372631072067, 6800437.133214773610234 ] } },
{ "type": "Feature", "properties": { "plz": "53919", "Jahr": "2018", "Ort": "Weilerswist", "Land": "DE" }, "geometry": { "type": "Point", "coordinates": [ 761316.386606661137193, 6578551.434456584975123 ] } },
{ "type": "Feature", "properties": { "plz": "2627", "Jahr": "2018", "Ort": "Weißenberg", "Land": "DE" }, "geometry": { "type": "Point", "coordinates": [ 1631838.330244571203366, 6656175.869594123214483 ] } },
{ "type": "Feature", "properties": { "plz": "50381", "Jahr": "2018", "Ort": "Wrocław", "Land": "PL" }, "geometry": { "type": "Point", "coordinates": [ 1895919.808702019974589, 6640469.9736098498106 ] } },
{ "type": "Feature", "properties": { "plz": "95632", "Jahr": "2018", "Ort": "Wunsiedel", "Land": "DE" }, "geometry": { "type": "Point", "coordinates": [ 1336224.096648469334468, 6453158.3175885444507 ] } },
{ "type": "Feature", "properties": { "plz": "55286", "Jahr": "2018", "Ort": "Wörrstadt", "Land": "DE" }, "geometry": { "type": "Point", "coordinates": [ 903211.893362314323895, 6418543.128085189498961 ] } },
{ "type": "Feature", "properties": { "plz": "8041", "Jahr": "2018", "Ort": "Zurich", "Land": "CH" }, "geometry": { "type": "Point", "coordinates": [ 951199.748620743746869, 6003059.142180478200316 ] } },
{ "type": "Feature", "properties": { "plz": "6330", "Jahr": "2018", "Ort": "Cham", "Land": "CH" }, "geometry": { "type": "Point", "coordinates": [ 941704.293503217515536, 5972028.927159234881401 ] } },
{ "type": "Feature", "properties": { "plz": "4105", "Jahr": "2018", "Ort": "Leipzig", "Land": "DE" }, "geometry": { "type": "Point", "coordinates": [ 1377458.702249818015844, 6681742.066951546818018 ] } }
]
}
