{
"type": "FeatureCollection",
"name": "points2017",
"crs": { "type": "name", "properties": { "name": "urn:ogc:def:crs:EPSG::3857" } },
"features": [
{ "type": "Feature", "properties": { "plz": "52066", "Jahr": "2017", "Ort": "Aachen", "Land": "DE" }, "geometry": { "type": "Point", "coordinates": [ 695278.363384888973087, 6571891.940864350646734 ] } },
{ "type": "Feature", "properties": { "plz": "84032", "Jahr": "2017", "Ort": "Altdorf", "Land": "DE" }, "geometry": { "type": "Point", "coordinates": [ 962016.046781729673967, 5924361.219237798824906 ] } },
{ "type": "Feature", "properties": { "plz": "86163", "Jahr": "2017", "Ort": "Augsburg", "Land": "DE" }, "geometry": { "type": "Point", "coordinates": [ 1195254.095923966728151, 6166132.516614004969597 ] } },
{ "type": "Feature", "properties": { "plz": "4001", "Jahr": "2017", "Ort": "Basel", "Land": "CH" }, "geometry": { "type": "Point", "coordinates": [ 845020.426610157359391, 6034007.882377845235169 ] } },
{ "type": "Feature", "properties": { "plz": "10243", "Jahr": "2017", "Ort": "Berlin", "Land": "DE" }, "geometry": { "type": "Point", "coordinates": [ 1492658.837575213285163, 6890920.341863920912147 ] } },
{ "type": "Feature", "properties": { "plz": "75365", "Jahr": "2017", "Ort": "Calw", "Land": "DE" }, "geometry": { "type": "Point", "coordinates": [ 961386.088816343573853, 6220700.406555867753923 ] } },
{ "type": "Feature", "properties": { "plz": "8840", "Jahr": "2017", "Ort": "Einsiedeln", "Land": "CH" }, "geometry": { "type": "Point", "coordinates": [ 977766.110471860622056, 5962033.333664199337363 ] } },
{ "type": "Feature", "properties": { "plz": "79098", "Jahr": "2017", "Ort": "Freiburg", "Land": "DE" }, "geometry": { "type": "Point", "coordinates": [ 870668.258933970006183, 6106044.738733065314591 ] } },
{ "type": "Feature", "properties": { "plz": "85354", "Jahr": "2017", "Ort": "Freising", "Land": "DE" }, "geometry": { "type": "Point", "coordinates": [ 1307225.608095275238156, 6181161.890299951657653 ] } },
{ "type": "Feature", "properties": { "plz": "8020", "Jahr": "2017", "Ort": "Graz", "Land": "AT" }, "geometry": { "type": "Point", "coordinates": [ 1718432.451842829585075, 5953394.106567514128983 ] } },
{ "type": "Feature", "properties": { "plz": "9100", "Jahr": "2017", "Ort": "Herisau", "Land": "CH" }, "geometry": { "type": "Point", "coordinates": [ 1032497.558469698880799, 6004973.614467620849609 ] } },
{ "type": "Feature", "properties": { "plz": "66424", "Jahr": "2017", "Ort": "Homburg", "Land": "DE" }, "geometry": { "type": "Point", "coordinates": [ 1001037.303058563848026, 6046678.01763635315001 ] } },
{ "type": "Feature", "properties": { "plz": "76131", "Jahr": "2017", "Ort": "Karlsruhe", "Land": "DE" }, "geometry": { "type": "Point", "coordinates": [ 936131.780962786520831, 6259483.752305340021849 ] } },
{ "type": "Feature", "properties": { "plz": "34131", "Jahr": "2017", "Ort": "Kassel", "Land": "DE" }, "geometry": { "type": "Point", "coordinates": [ 1048270.570268296054564, 6692814.034419578500092 ] } },
{ "type": "Feature", "properties": { "plz": "56070", "Jahr": "2017", "Ort": "Koblenz", "Land": "DE" }, "geometry": { "type": "Point", "coordinates": [ 917694.132134336978197, 6042152.890544027090073 ] } },
{ "type": "Feature", "properties": { "plz": "84032", "Jahr": "2017", "Ort": "Landshut", "Land": "DE" }, "geometry": { "type": "Point", "coordinates": [ 1357843.199719356372952, 6200212.142508702352643 ] } },
{ "type": "Feature", "properties": { "plz": "1015", "Jahr": "2017", "Ort": "Lausanne", "Land": "CH" }, "geometry": { "type": "Point", "coordinates": [ 740790.31435753707774, 5869407.69056499004364 ] } },
{ "type": "Feature", "properties": { "plz": "71634", "Jahr": "2017", "Ort": "Ludwigsburg", "Land": "DE" }, "geometry": { "type": "Point", "coordinates": [ 1015897.763911921996623, 6264880.462165681645274 ] } },
{ "type": "Feature", "properties": { "plz": "19288", "Jahr": "2017", "Ort": "Ludwigslust", "Land": "DE" }, "geometry": { "type": "Point", "coordinates": [ 1250566.434394240146503, 7053181.256532636471093 ] } },
{ "type": "Feature", "properties": { "plz": "26123", "Jahr": "2017", "Ort": "Oldenburg", "Land": "DE" }, "geometry": { "type": "Point", "coordinates": [ 936091.381147411419079, 6981571.707579768262804 ] } },
{ "type": "Feature", "properties": { "plz": "94032", "Jahr": "2017", "Ort": "Passau", "Land": "DE" }, "geometry": { "type": "Point", "coordinates": [ 1488212.229653916787356, 6200888.663561329245567 ] } },
{ "type": "Feature", "properties": { "plz": "45657", "Jahr": "2017", "Ort": "Recklinghausen", "Land": "DE" }, "geometry": { "type": "Point", "coordinates": [ 797863.484453079523519, 6740502.205104413442314 ] } },
{ "type": "Feature", "properties": { "plz": "93047", "Jahr": "2017", "Ort": "Regensburg", "Land": "DE" }, "geometry": { "type": "Point", "coordinates": [ 1349602.271319232881069, 6278680.659162378869951 ] } },
{ "type": "Feature", "properties": { "plz": "72768", "Jahr": "2017", "Ort": "Reutlingen", "Land": "DE" }, "geometry": { "type": "Point", "coordinates": [ 1042675.576561647234485, 6174975.201025139540434 ] } },
{ "type": "Feature", "properties": { "plz": "6370", "Jahr": "2017", "Ort": "Stans", "Land": "CH" }, "geometry": { "type": "Point", "coordinates": [ 930980.958324253675528, 5935418.994840379804373 ] } },
{ "type": "Feature", "properties": { "plz": "4400", "Jahr": "2017", "Ort": "Steyr", "Land": "AT" }, "geometry": { "type": "Point", "coordinates": [ 1603187.232090268284082, 6116780.137180981226265 ] } },
{ "type": "Feature", "properties": { "plz": "8800", "Jahr": "2017", "Ort": "Thalwil", "Land": "CH" }, "geometry": { "type": "Point", "coordinates": [ 953027.145193842705339, 5989845.023731424473226 ] } },
{ "type": "Feature", "properties": { "plz": "59425", "Jahr": "2017", "Ort": "Unna", "Land": "DE" }, "geometry": { "type": "Point", "coordinates": [ 850486.135530585772358, 6723821.703645275905728 ] } },
{ "type": "Feature", "properties": { "plz": "8610", "Jahr": "2017", "Ort": "Uster", "Land": "CH" }, "geometry": { "type": "Point", "coordinates": [ 971091.101337404223159, 6000637.375843469053507 ] } },
{ "type": "Feature", "properties": { "plz": "3380", "Jahr": "2017", "Ort": "Wangen an der Aare", "Land": "CH" }, "geometry": { "type": "Point", "coordinates": [ 851857.023249588091858, 5980501.927404886111617 ] } },
{ "type": "Feature", "properties": { "plz": "1220", "Jahr": "2017", "Ort": "Wien", "Land": "AT" }, "geometry": { "type": "Point", "coordinates": [ 1823651.1551424539648, 6143079.426215002313256 ] } },
{ "type": "Feature", "properties": { "plz": "2700", "Jahr": "2017", "Ort": "Wiener Neustadt", "Land": "AT" }, "geometry": { "type": "Point", "coordinates": [ 1805863.459777483716607, 6073726.917862212285399 ] } },
{ "type": "Feature", "properties": { "plz": "95632", "Jahr": "2017", "Ort": "Wunsiedel", "Land": "DE" }, "geometry": { "type": "Point", "coordinates": [ 1340535.146333939163014, 6462172.330567254684865 ] } },
{ "type": "Feature", "properties": { "plz": "6300", "Jahr": "2017", "Ort": "Zug", "Land": "CH" }, "geometry": { "type": "Point", "coordinates": [ 949063.734057024703361, 5968013.679054703563452 ] } },
{ "type": "Feature", "properties": { "plz": "6846", "Jahr": "2018", "Ort": "Dessau-Roßlau", "Land": "DE" }, "geometry": { "type": "Point", "coordinates": [ 1362951.346844268962741, 6769642.929454489611089 ] } },
{ "type": "Feature", "properties": { "plz": "16727", "Jahr": "2018", "Ort": "Oberkrämer", "Land": "DE" }, "geometry": { "type": "Point", "coordinates": [ 1458341.842861161567271, 6928853.315493203699589 ] } },
{ "type": "Feature", "properties": { "plz": "40476", "Jahr": "2018", "Ort": "Düsseldorf", "Land": "DE" }, "geometry": { "type": "Point", "coordinates": [ 754995.381477708462626, 6665261.621971475891769 ] } },
{ "type": "Feature", "properties": { "plz": "49074", "Jahr": "2018", "Ort": "Osnabrück", "Land": "DE" }, "geometry": { "type": "Point", "coordinates": [ 896569.955888763768598, 6850378.285686620511115 ] } },
{ "type": "Feature", "properties": { "plz": "50668", "Jahr": "2018", "Ort": "Köln", "Land": "DE" }, "geometry": { "type": "Point", "coordinates": [ 775100.193820924148895, 6612450.829391594044864 ] } },
{ "type": "Feature", "properties": { "plz": "80335", "Jahr": "2018", "Ort": "München", "Land": "DE" }, "geometry": { "type": "Point", "coordinates": [ 1286182.041712632635608, 6131102.808432611636817 ] } },
{ "type": "Feature", "properties": { "plz": "97074", "Jahr": "2018", "Ort": "Würzburg", "Land": "DE" }, "geometry": { "type": "Point", "coordinates": [ 1109056.179696937790141, 6408811.077234632335603 ] } },
{ "type": "Feature", "properties": { "plz": "8048", "Jahr": "2018", "Ort": "Zürich", "Land": "CH" }, "geometry": { "type": "Point", "coordinates": [ 950317.88824854278937, 6004048.609535193070769 ] } },
{ "type": "Feature", "properties": { "plz": "6366", "Jahr": "2018", "Ort": "Köthen", "Land": "DE" }, "geometry": { "type": "Point", "coordinates": [ 1332105.674298075493425, 6754833.337641768157482 ] } },
{ "type": "Feature", "properties": { "plz": "37083", "Jahr": "2018", "Ort": "Göttingen", "Land": "DE" }, "geometry": { "type": "Point", "coordinates": [ 1105930.515829347539693, 6715951.656679894775152 ] } },
{ "type": "Feature", "properties": { "plz": "65510", "Jahr": "2018", "Ort": "Hünstetten", "Land": "DE" }, "geometry": { "type": "Point", "coordinates": [ 911955.005117543041706, 6490028.471016230992973 ] } },
{ "type": "Feature", "properties": { "plz": "65428", "Jahr": "2018", "Ort": "Rüsselsheim", "Land": "DE" }, "geometry": { "type": "Point", "coordinates": [ 936428.192243573488668, 6445436.090410958044231 ] } },
{ "type": "Feature", "properties": { "plz": "82234", "Jahr": "2018", "Ort": "Weßling", "Land": "DE" }, "geometry": { "type": "Point", "coordinates": [ 1252600.30505726672709, 6119638.010781570337713 ] } },
{ "type": "Feature", "properties": { "plz": "90411", "Jahr": "2020", "Ort": "Nürnberg", "Land": "DE" }, "geometry": { "type": "Point", "coordinates": [ 1233036.40746876434423, 6352134.757128178142011 ] } },
{ "type": "Feature", "properties": { "plz": "9853", "Jahr": "2017", "Ort": "Gmünd", "Land": "AT" }, "geometry": { "type": "Point", "coordinates": [ 1506825.635163891827688, 5926747.985007472336292 ] } },
{ "type": "Feature", "properties": { "plz": "15566", "Jahr": "2017", "Ort": "Schöneiche", "Land": "DE" }, "geometry": { "type": "Point", "coordinates": [ 1524554.030748533084989, 6886913.165886776521802 ] } },
{ "type": "Feature", "properties": { "plz": "74336", "Jahr": "2018", "Ort": "Brackenheim", "Land": "DE" }, "geometry": { "type": "Point", "coordinates": [ 1009234.060579891665839, 6288132.381538193672895 ] } },
{ "type": "Feature", "properties": { "plz": "55469", "Jahr": "2018", "Ort": "Holzbach", "Land": "DE" }, "geometry": { "type": "Point", "coordinates": [ 838442.320578795392066, 6438347.943896965123713 ] } },
{ "type": "Feature", "properties": { "plz": "89278", "Jahr": "2018", "Ort": "Nersingen", "Land": "DE" }, "geometry": { "type": "Point", "coordinates": [ 1126780.55777814402245, 6178264.761463687755167 ] } },
{ "type": "Feature", "properties": { "plz": "41464", "Jahr": "2018", "Ort": "Neuss", "Land": "DE" }, "geometry": { "type": "Point", "coordinates": [ 744987.412367980694398, 6656451.365773752331734 ] } },
{ "type": "Feature", "properties": { "plz": "89077", "Jahr": "2018", "Ort": "Ulm", "Land": "DE" }, "geometry": { "type": "Point", "coordinates": [ 1112443.786346759647131, 6173201.974511709995568 ] } },
{ "type": "Feature", "properties": { "plz": "4105", "Jahr": "2018", "Ort": "Leipzig", "Land": "DE" }, "geometry": { "type": "Point", "coordinates": [ 1377458.702249818015844, 6681742.066951546818018 ] } },
{ "type": "Feature", "properties": { "plz": "51399", "Jahr": "2018", "Ort": "Burscheid", "Land": "DE" }, "geometry": { "type": "Point", "coordinates": [ 800411.800512676476501, 6236088.706240733154118 ] } },
{ "type": "Feature", "properties": { "plz": "67125", "Jahr": "2018", "Ort": "Dannstadt-Schauernheim", "Land": "DE" }, "geometry": { "type": "Point", "coordinates": [ 924692.376197368837893, 6348860.742821648716927 ] } },
{ "type": "Feature", "properties": { "plz": "2011", "Jahr": "2018", "Ort": "Sierndorf", "Land": "AT" }, "geometry": { "type": "Point", "coordinates": [ 1799667.11200599744916, 6178390.672543908469379 ] } },
{ "type": "Feature", "properties": { "plz": "22049", "Jahr": "2018", "Ort": "Hamburg", "Land": "DE" }, "geometry": { "type": "Point", "coordinates": [ 1113522.08780445321463, 7085220.447256739251316 ] } },
{ "type": "Feature", "properties": { "plz": "53604", "Jahr": "2018", "Ort": "Bad Honnef", "Land": "DE" }, "geometry": { "type": "Point", "coordinates": [ 804621.479599723475985, 6558641.674707093276083 ] } },
{ "type": "Feature", "properties": { "plz": "64625", "Jahr": "2018", "Ort": "Bensheim", "Land": "DE" }, "geometry": { "type": "Point", "coordinates": [ 959886.573003486148082, 6391251.212001282721758 ] } },
{ "type": "Feature", "properties": { "plz": "33615", "Jahr": "2018", "Ort": "Bielefeld", "Land": "DE" }, "geometry": { "type": "Point", "coordinates": [ 949361.840842318721116, 6803724.526674408465624 ] } },
{ "type": "Feature", "properties": { "plz": "53111", "Jahr": "2018", "Ort": "Bonn", "Land": "DE" }, "geometry": { "type": "Point", "coordinates": [ 790329.838355590589345, 6574814.999885768629611 ] } },
{ "type": "Feature", "properties": { "plz": "9114", "Jahr": "2018", "Ort": "Chemnitz", "Land": "DE" }, "geometry": { "type": "Point", "coordinates": [ 1438311.670357926981524, 6591437.316715635359287 ] } },
{ "type": "Feature", "properties": { "plz": "32756", "Jahr": "2018", "Ort": "Detmold", "Land": "DE" }, "geometry": { "type": "Point", "coordinates": [ 988459.639455248136073, 6788668.061568890698254 ] } },
{ "type": "Feature", "properties": { "plz": "44227", "Jahr": "2018", "Ort": "Dortmund", "Land": "DE" }, "geometry": { "type": "Point", "coordinates": [ 830406.829758459236473, 6712567.80735017824918 ] } },
{ "type": "Feature", "properties": { "plz": "1069", "Jahr": "2018", "Ort": "Dresden", "Land": "DE" }, "geometry": { "type": "Point", "coordinates": [ 1529271.412777805933729, 6630057.386139403097332 ] } },
{ "type": "Feature", "properties": { "plz": "45307", "Jahr": "2018", "Ort": "Essen", "Land": "DE" }, "geometry": { "type": "Point", "coordinates": [ 780795.020977550768293, 6702884.023544969968498 ] } },
{ "type": "Feature", "properties": { "plz": "60598", "Jahr": "2018", "Ort": "Frankfurt", "Land": "DE" }, "geometry": { "type": "Point", "coordinates": [ 966390.697322571766563, 6465533.549639035947621 ] } },
{ "type": "Feature", "properties": { "plz": "88048", "Jahr": "2018", "Ort": "Friedrichshafen", "Land": "DE" }, "geometry": { "type": "Point", "coordinates": [ 1055349.606380670564249, 6049011.201828778721392 ] } },
{ "type": "Feature", "properties": { "plz": "30659", "Jahr": "2018", "Ort": "Hannover", "Land": "DE" }, "geometry": { "type": "Point", "coordinates": [ 1084360.437612327747047, 6868157.863262251019478 ] } },
{ "type": "Feature", "properties": { "plz": "34369", "Jahr": "2018", "Ort": "Hofgeismar", "Land": "DE" }, "geometry": { "type": "Point", "coordinates": [ 1044220.434986735228449, 6709382.084564263001084 ] } },
{ "type": "Feature", "properties": { "plz": "7743", "Jahr": "2018", "Ort": "Jena", "Land": "DE" }, "geometry": { "type": "Point", "coordinates": [ 1289970.812811306212097, 6608612.187172739766538 ] } },
{ "type": "Feature", "properties": { "plz": "59174", "Jahr": "2018", "Ort": "Kamen", "Land": "DE" }, "geometry": { "type": "Point", "coordinates": [ 852793.354273310862482, 6726637.613777589052916 ] } },
{ "type": "Feature", "properties": { "plz": "32657", "Jahr": "2018", "Ort": "Lemgo", "Land": "DE" }, "geometry": { "type": "Point", "coordinates": [ 990902.571270207641646, 6805212.247558851726353 ] } },
{ "type": "Feature", "properties": { "plz": "14974", "Jahr": "2018", "Ort": "Ludwigsfelde", "Land": "DE" }, "geometry": { "type": "Point", "coordinates": [ 1476185.540079281199723, 6854790.180191694758832 ] } },
{ "type": "Feature", "properties": { "plz": "26506", "Jahr": "2018", "Ort": "Norden", "Land": "DE" }, "geometry": { "type": "Point", "coordinates": [ 802084.292423796374351, 7093437.74663516972214 ] } },
{ "type": "Feature", "properties": { "plz": "14482", "Jahr": "2018", "Ort": "Potsdam", "Land": "DE" }, "geometry": { "type": "Point", "coordinates": [ 1453551.473464054521173, 6873006.992701073177159 ] } },
{ "type": "Feature", "properties": { "plz": "70184", "Jahr": "2018", "Ort": "Stuttgart", "Land": "DE" }, "geometry": { "type": "Point", "coordinates": [ 1021801.195468815392815, 6237288.718777137808502 ] } },
{ "type": "Feature", "properties": { "plz": "65205", "Jahr": "2018", "Ort": "Wiesbaden", "Land": "DE" }, "geometry": { "type": "Point", "coordinates": [ 917681.343682382139377, 6460439.78368741646409 ] } },
{ "type": "Feature", "properties": { "plz": "82110", "Jahr": "2018", "Ort": "Germering", "Land": "DE" }, "geometry": { "type": "Point", "coordinates": [ 1265267.136118883965537, 6129210.400247448123991 ] } },
{ "type": "Feature", "properties": { "plz": "79106", "Jahr": "2018", "Ort": "Freiburg im Breisgau", "Land": "DE" }, "geometry": { "type": "Point", "coordinates": [ 873697.373139806790277, 6106279.897810944356024 ] } },
{ "type": "Feature", "properties": { "plz": "69126", "Jahr": "2018", "Ort": "Heidelberg", "Land": "DE" }, "geometry": { "type": "Point", "coordinates": [ 967500.64334980759304, 6344633.24719362705946 ] } },
{ "type": "Feature", "properties": { "plz": "91052", "Jahr": "2018", "Ort": "Erlangen", "Land": "DE" }, "geometry": { "type": "Point", "coordinates": [ 1224889.875771309714764, 6376851.993225351907313 ] } },
{ "type": "Feature", "properties": { "plz": "24106", "Jahr": "2018", "Ort": "Kiel", "Land": "DE" }, "geometry": { "type": "Point", "coordinates": [ 1128355.879091708688065, 7231236.380743834190071 ] } },
{ "type": "Feature", "properties": { "plz": "19059", "Jahr": "2018", "Ort": "Schwerin", "Land": "DE" }, "geometry": { "type": "Point", "coordinates": [ 1268018.725508237956092, 7101824.043371546082199 ] } },
{ "type": "Feature", "properties": { "plz": "53840", "Jahr": "2018", "Ort": "Troisdorf", "Land": "DE" }, "geometry": { "type": "Point", "coordinates": [ 797577.04230793484021, 6588533.752889759838581 ] } },
{ "type": "Feature", "properties": { "plz": "54290", "Jahr": "2018", "Ort": "Trier", "Land": "DE" }, "geometry": { "type": "Point", "coordinates": [ 738691.90671708912123, 6403353.762120178900659 ] } },
{ "type": "Feature", "properties": { "plz": "60318", "Jahr": "2018", "Ort": "Frankfurt", "Land": "DE" }, "geometry": { "type": "Point", "coordinates": [ 966974.464922963874415, 6468004.739215353503823 ] } },
{ "type": "Feature", "properties": { "plz": "82538", "Jahr": "2019", "Ort": "Geretsried", "Land": "DE" }, "geometry": { "type": "Point", "coordinates": [ 1277855.4232618866954, 6084364.238532787188888 ] } },
{ "type": "Feature", "properties": { "plz": "65824", "Jahr": "2019", "Ort": "Schwalbach am Taunus", "Land": "DE" }, "geometry": { "type": "Point", "coordinates": [ 950219.699310815543868, 6472072.834088502451777 ] } },
{ "type": "Feature", "properties": { "plz": "82008", "Jahr": "2019", "Ort": "Unterhaching", "Land": "DE" }, "geometry": { "type": "Point", "coordinates": [ 1292570.893734517274424, 6117961.522960813716054 ] } },
{ "type": "Feature", "properties": { "plz": "87509", "Jahr": "2019", "Ort": "Immenstadt", "Land": "DE" }, "geometry": { "type": "Point", "coordinates": [ 1137608.66892820247449, 6034072.567919888533652 ] } },
{ "type": "Feature", "properties": { "plz": "32423", "Jahr": "2019", "Ort": "Minden", "Land": "DE" }, "geometry": { "type": "Point", "coordinates": [ 720123.21010047965683, 6415782.404518828727305 ] } },
{ "type": "Feature", "properties": { "plz": "87435", "Jahr": "2020", "Ort": "Kempten", "Land": "DE" }, "geometry": { "type": "Point", "coordinates": [ 1148063.875362287973985, 6061276.757796350866556 ] } },
{ "type": "Feature", "properties": { "plz": "65824", "Jahr": "2020", "Ort": "Schwalbach", "Land": "DE" }, "geometry": { "type": "Point", "coordinates": [ 942835.437752206227742, 6532583.548422055318952 ] } },
{ "type": "Feature", "properties": { "plz": "38100", "Jahr": "2020", "Ort": "Braunschweig", "Land": "DE" }, "geometry": { "type": "Point", "coordinates": [ 1171210.439559103921056, 6848190.038979016244411 ] } },
{ "type": "Feature", "properties": { "plz": "6092", "Jahr": "2017", "Ort": "Birgitz", "Land": "AT" }, "geometry": { "type": "Point", "coordinates": [ 1257935.931265629595146, 5980578.836376370862126 ] } },
{ "type": "Feature", "properties": { "plz": "7330", "Jahr": "2017", "Ort": "Brande", "Land": "DN" }, "geometry": { "type": "Point", "coordinates": [ 1016440.165290897944942, 7547226.602025777101517 ] } },
{ "type": "Feature", "properties": { "plz": "84508", "Jahr": "2017", "Ort": "Burgkirchen", "Land": "DE" }, "geometry": { "type": "Point", "coordinates": [ 1458231.453269827645272, 6140540.700681736692786 ] } },
{ "type": "Feature", "properties": { "plz": "6846", "Jahr": "2017", "Ort": "Dessau", "Land": "DE" }, "geometry": { "type": "Point", "coordinates": [ 1277484.35775259649381, 6947728.679359224624932 ] } },
{ "type": "Feature", "properties": { "plz": "82223", "Jahr": "2017", "Ort": "Eichenau", "Land": "DE" }, "geometry": { "type": "Point", "coordinates": [ 1260412.84335399325937, 6135596.059545527212322 ] } },
{ "type": "Feature", "properties": { "plz": "3213", "Jahr": "2017", "Ort": "Frankenfels", "Land": "AT" }, "geometry": { "type": "Point", "coordinates": [ 1706067.812677074689418, 6103903.920923282392323 ] } },
{ "type": "Feature", "properties": { "plz": "94078", "Jahr": "2017", "Ort": "Freyung", "Land": "DE" }, "geometry": { "type": "Point", "coordinates": [ 1508352.945144605590031, 6242716.069121078588068 ] } },
{ "type": "Feature", "properties": { "plz": "45699", "Jahr": "2017", "Ort": "Herten", "Land": "DE" }, "geometry": { "type": "Point", "coordinates": [ 794502.364158073323779, 6727114.439178006723523 ] } },
{ "type": "Feature", "properties": { "plz": "5710", "Jahr": "2017", "Ort": "5710", "Land": "AT" }, "geometry": { "type": "Point", "coordinates": [ 1416456.41731095709838, 5977046.585388860665262 ] } },
{ "type": "Feature", "properties": { "plz": "18437", "Jahr": "2017", "Ort": "Stralsund", "Land": "DE" }, "geometry": { "type": "Point", "coordinates": [ 1453884.278087855316699, 7227273.888529002666473 ] } },
{ "type": "Feature", "properties": { "plz": "83666", "Jahr": "2017", "Ort": "Waakirchen", "Land": "DE" }, "geometry": { "type": "Point", "coordinates": [ 1299891.131605198374018, 6069678.211373548954725 ] } },
{ "type": "Feature", "properties": { "plz": "6330", "Jahr": "2017", "Ort": "Cham", "Land": "CH" }, "geometry": { "type": "Point", "coordinates": [ 941894.120852097286843, 5971695.666100333444774 ] } }
]
}
