{
"type": "FeatureCollection",
"name": "points2015",
"crs": { "type": "name", "properties": { "name": "urn:ogc:def:crs:OGC:1.3:CRS84" } },
"features": [
{ "type": "Feature", "properties": { "plz": "86163", "Jahr": "2015", "Ort": "Augsburg", "Land": "" }, "geometry": { "type": "Point", "coordinates": [ 10.737150227749598, 48.355082444828419 ] } },
{ "type": "Feature", "properties": { "plz": "96047", "Jahr": "2015", "Ort": "Bamberg", "Land": "" }, "geometry": { "type": "Point", "coordinates": [ 10.886912427452627, 49.890327547761217 ] } },
{ "type": "Feature", "properties": { "plz": "4001", "Jahr": "2015", "Ort": "Basel", "Land": "" }, "geometry": { "type": "Point", "coordinates": [ 7.590947646171027, 47.560264825691192 ] } },
{ "type": "Feature", "properties": { "plz": "95448", "Jahr": "2015", "Ort": "Bayreuth", "Land": "" }, "geometry": { "type": "Point", "coordinates": [ 11.561516009451989, 49.884029647588257 ] } },
{ "type": "Feature", "properties": { "plz": "14193", "Jahr": "2015", "Ort": "Berlin", "Land": "" }, "geometry": { "type": "Point", "coordinates": [ 13.408782477698923, 52.499336205601395 ] } },
{ "type": "Feature", "properties": { "plz": "6406", "Jahr": "2015", "Ort": "Bernburg", "Land": "" }, "geometry": { "type": "Point", "coordinates": [ 11.74234129465755, 51.753639036480699 ] } },
{ "type": "Feature", "properties": { "plz": "8180", "Jahr": "2015", "Ort": "Bülach", "Land": "" }, "geometry": { "type": "Point", "coordinates": [ 8.542517377133406, 47.532391840369108 ] } },
{ "type": "Feature", "properties": { "plz": "27474", "Jahr": "2015", "Ort": "Cuxhaven", "Land": "" }, "geometry": { "type": "Point", "coordinates": [ 8.551716547773257, 53.575163091847905 ] } },
{ "type": "Feature", "properties": { "plz": "9642", "Jahr": "2015", "Ort": "Ebnat-Kappel", "Land": "" }, "geometry": { "type": "Point", "coordinates": [ 9.131614046198425, 47.245014535588581 ] } },
{ "type": "Feature", "properties": { "plz": "79312", "Jahr": "2015", "Ort": "Emmendingen", "Land": "" }, "geometry": { "type": "Point", "coordinates": [ 7.897662142035953, 48.151058827640497 ] } },
{ "type": "Feature", "properties": { "plz": "73728", "Jahr": "2015", "Ort": "Esslingen", "Land": "" }, "geometry": { "type": "Point", "coordinates": [ 9.371311615171757, 48.648638568037683 ] } },
{ "type": "Feature", "properties": { "plz": "79100", "Jahr": "2015", "Ort": "Freiburg", "Land": "" }, "geometry": { "type": "Point", "coordinates": [ 7.821346043981184, 47.995130361200538 ] } },
{ "type": "Feature", "properties": { "plz": "36039", "Jahr": "2015", "Ort": "Fulda", "Land": "" }, "geometry": { "type": "Point", "coordinates": [ 9.761326325387, 50.56415686779377 ] } },
{ "type": "Feature", "properties": { "plz": "8010", "Jahr": "2015", "Ort": "Graz", "Land": "" }, "geometry": { "type": "Point", "coordinates": [ 15.436941362173974, 47.069307130595696 ] } },
{ "type": "Feature", "properties": { "plz": "37073", "Jahr": "2015", "Ort": "Göttingen", "Land": "" }, "geometry": { "type": "Point", "coordinates": [ 9.931012522664135, 51.501536106262783 ] } },
{ "type": "Feature", "properties": { "plz": "18273", "Jahr": "2015", "Ort": "Güstrow", "Land": "" }, "geometry": { "type": "Point", "coordinates": [ 12.319421077772086, 53.819096165466895 ] } },
{ "type": "Feature", "properties": { "plz": "76133", "Jahr": "2015", "Ort": "Karlsruhe", "Land": "" }, "geometry": { "type": "Point", "coordinates": [ 8.409414867888993, 48.909289733490219 ] } },
{ "type": "Feature", "properties": { "plz": "34131", "Jahr": "2015", "Ort": "Kassel", "Land": "" }, "geometry": { "type": "Point", "coordinates": [ 9.416774751646971, 51.402564499459373 ] } },
{ "type": "Feature", "properties": { "plz": "56073", "Jahr": "2015", "Ort": "Koblenz", "Land": "" }, "geometry": { "type": "Point", "coordinates": [ 8.243786650430746, 47.609616278339992 ] } },
{ "type": "Feature", "properties": { "plz": "6366", "Jahr": "2015", "Ort": "Köthen", "Land": "" }, "geometry": { "type": "Point", "coordinates": [ 12.016946659859167, 51.754552955125227 ] } },
{ "type": "Feature", "properties": { "plz": "1015", "Jahr": "2015", "Ort": "Lausanne", "Land": "" }, "geometry": { "type": "Point", "coordinates": [ 6.654632617150805, 46.552954363303314 ] } },
{ "type": "Feature", "properties": { "plz": "4410", "Jahr": "2015", "Ort": "Liestal", "Land": "" }, "geometry": { "type": "Point", "coordinates": [ 7.721793958237113, 47.489881110540949 ] } },
{ "type": "Feature", "properties": { "plz": "4020", "Jahr": "2015", "Ort": "Linz", "Land": "" }, "geometry": { "type": "Point", "coordinates": [ 14.304442734221778, 48.295550153070081 ] } },
{ "type": "Feature", "properties": { "plz": "19288", "Jahr": "2015", "Ort": "Ludwigslust", "Land": "" }, "geometry": { "type": "Point", "coordinates": [ 11.234029418231987, 53.377759836644664 ] } },
{ "type": "Feature", "properties": { "plz": "2340", "Jahr": "2015", "Ort": "Mödling", "Land": "" }, "geometry": { "type": "Point", "coordinates": [ 16.24668722179586, 48.097851208006034 ] } },
{ "type": "Feature", "properties": { "plz": "81371", "Jahr": "2015", "Ort": "München", "Land": "" }, "geometry": { "type": "Point", "coordinates": [ 11.635805132604899, 48.070467055583009 ] } },
{ "type": "Feature", "properties": { "plz": "63067", "Jahr": "2015", "Ort": "Offenbach", "Land": "" }, "geometry": { "type": "Point", "coordinates": [ 8.826630532372283, 50.02173236377417 ] } },
{ "type": "Feature", "properties": { "plz": "26123", "Jahr": "2015", "Ort": "Oldenburg", "Land": "" }, "geometry": { "type": "Point", "coordinates": [ 8.409051950172721, 52.992288925045315 ] } },
{ "type": "Feature", "properties": { "plz": "49074", "Jahr": "2015", "Ort": "Osnabrück", "Land": "" }, "geometry": { "type": "Point", "coordinates": [ 8.050804990473631, 52.380187376829838 ] } },
{ "type": "Feature", "properties": { "plz": "33102", "Jahr": "2015", "Ort": "Paderborn", "Land": "" }, "geometry": { "type": "Point", "coordinates": [ 8.728120054737136, 51.662216460110798 ] } },
{ "type": "Feature", "properties": { "plz": "94032", "Jahr": "2015", "Ort": "Passau", "Land": "" }, "geometry": { "type": "Point", "coordinates": [ 13.368837919117048, 48.562134007402335 ] } },
{ "type": "Feature", "properties": { "plz": "45657", "Jahr": "2015", "Ort": "Recklinghausen", "Land": "" }, "geometry": { "type": "Point", "coordinates": [ 7.167329627250595, 51.669033096060332 ] } },
{ "type": "Feature", "properties": { "plz": "6430", "Jahr": "2015", "Ort": "Schwyz", "Land": "" }, "geometry": { "type": "Point", "coordinates": [ 8.680041436259289, 47.026504363389307 ] } },
{ "type": "Feature", "properties": { "plz": "4500", "Jahr": "2015", "Ort": "Solothurn", "Land": "" }, "geometry": { "type": "Point", "coordinates": [ 7.531602572671026, 47.212596689186455 ] } },
{ "type": "Feature", "properties": { "plz": "6370", "Jahr": "2015", "Ort": "Stans", "Land": "" }, "geometry": { "type": "Point", "coordinates": [ 8.363144240869163, 46.959212139673838 ] } },
{ "type": "Feature", "properties": { "plz": "8800", "Jahr": "2015", "Ort": "Thalwil", "Land": "" }, "geometry": { "type": "Point", "coordinates": [ 8.561188507084232, 47.291867142196161 ] } },
{ "type": "Feature", "properties": { "plz": "72070", "Jahr": "2015", "Ort": "Tübingen", "Land": "" }, "geometry": { "type": "Point", "coordinates": [ 9.05090296771828, 48.518861457789477 ] } },
{ "type": "Feature", "properties": { "plz": "59425", "Jahr": "2015", "Ort": "Unna", "Land": "" }, "geometry": { "type": "Point", "coordinates": [ 7.640046944788719, 51.576004345877756 ] } },
{ "type": "Feature", "properties": { "plz": "8610", "Jahr": "2015", "Ort": "Uster", "Land": "" }, "geometry": { "type": "Point", "coordinates": [ 8.723459786038493, 47.357583515305429 ] } },
{ "type": "Feature", "properties": { "plz": "41747", "Jahr": "2015", "Ort": "Viersen", "Land": "" }, "geometry": { "type": "Point", "coordinates": [ 6.332692804617398, 51.285573442707815 ] } },
{ "type": "Feature", "properties": { "plz": "48231", "Jahr": "2015", "Ort": "Warendorf", "Land": "" }, "geometry": { "type": "Point", "coordinates": [ 7.960830060117977, 51.869789509260073 ] } },
{ "type": "Feature", "properties": { "plz": "1150", "Jahr": "2015", "Ort": "Wien", "Land": "" }, "geometry": { "type": "Point", "coordinates": [ 16.373227118717022, 48.208377141437509 ] } },
{ "type": "Feature", "properties": { "plz": "2700", "Jahr": "2015", "Ort": "Wiener Neustadt", "Land": "" }, "geometry": { "type": "Point", "coordinates": [ 16.222347469510723, 47.800486922015871 ] } },
{ "type": "Feature", "properties": { "plz": "97082", "Jahr": "2015", "Ort": "Würzburg", "Land": "" }, "geometry": { "type": "Point", "coordinates": [ 9.931933716800311, 49.733338042021934 ] } },
{ "type": "Feature", "properties": { "plz": "6300", "Jahr": "2015", "Ort": "Zug", "Land": "" }, "geometry": { "type": "Point", "coordinates": [ 8.525584579069701, 47.158682571670155 ] } },
{ "type": "Feature", "properties": { "plz": "6846", "Jahr": "2015", "Ort": "Dessau-Roßlau", "Land": "DE" }, "geometry": { "type": "Point", "coordinates": [ 12.243600263814937, 51.831096314123748 ] } },
{ "type": "Feature", "properties": { "plz": "40476", "Jahr": "2015", "Ort": "Düsseldorf", "Land": "DE" }, "geometry": { "type": "Point", "coordinates": [ 6.782238906210741, 51.2478975029222 ] } },
{ "type": "Feature", "properties": { "plz": "50668", "Jahr": "2015", "Ort": "Köln", "Land": "DE" }, "geometry": { "type": "Point", "coordinates": [ 6.962843508333395, 50.949981701464296 ] } },
{ "type": "Feature", "properties": { "plz": "8048", "Jahr": "2015", "Ort": "Zürich", "Land": "CH" }, "geometry": { "type": "Point", "coordinates": [ 8.536850837858534, 47.378338064376891 ] } },
{ "type": "Feature", "properties": { "plz": "65428", "Jahr": "2015", "Ort": "Rüsselsheim", "Land": "DE" }, "geometry": { "type": "Point", "coordinates": [ 8.412077575728155, 49.995150817687417 ] } },
{ "type": "Feature", "properties": { "plz": "74336", "Jahr": "2015", "Ort": "Brackenheim", "Land": "DE" }, "geometry": { "type": "Point", "coordinates": [ 9.066103818729237, 49.078150878673007 ] } },
{ "type": "Feature", "properties": { "plz": "4105", "Jahr": "2015", "Ort": "Leipzig", "Land": "DE" }, "geometry": { "type": "Point", "coordinates": [ 12.373922054744526, 51.340474082633712 ] } },
{ "type": "Feature", "properties": { "plz": "67125", "Jahr": "2015", "Ort": "Dannstadt-Schauernheim", "Land": "DE" }, "geometry": { "type": "Point", "coordinates": [ 8.306652946468947, 49.434205627730812 ] } },
{ "type": "Feature", "properties": { "plz": "2011", "Jahr": "2015", "Ort": "Sierndorf", "Land": "AT" }, "geometry": { "type": "Point", "coordinates": [ 16.166684730422261, 48.428203925454575 ] } },
{ "type": "Feature", "properties": { "plz": "22049", "Jahr": "2015", "Ort": "Hamburg", "Land": "DE" }, "geometry": { "type": "Point", "coordinates": [ 10.0029391067942, 53.549104864825068 ] } },
{ "type": "Feature", "properties": { "plz": "64625", "Jahr": "2015", "Ort": "Bensheim", "Land": "DE" }, "geometry": { "type": "Point", "coordinates": [ 8.622807795501403, 49.681222964736904 ] } },
{ "type": "Feature", "properties": { "plz": "33615", "Jahr": "2015", "Ort": "Bielefeld", "Land": "DE" }, "geometry": { "type": "Point", "coordinates": [ 8.528262517884993, 52.019900536003341 ] } },
{ "type": "Feature", "properties": { "plz": "53111", "Jahr": "2015", "Ort": "Bonn", "Land": "DE" }, "geometry": { "type": "Point", "coordinates": [ 7.099653732905378, 50.73649820286586 ] } },
{ "type": "Feature", "properties": { "plz": "9114", "Jahr": "2015", "Ort": "Chemnitz", "Land": "DE" }, "geometry": { "type": "Point", "coordinates": [ 12.920573568100044, 50.830906200646439 ] } },
{ "type": "Feature", "properties": { "plz": "32756", "Jahr": "2015", "Ort": "Detmold", "Land": "DE" }, "geometry": { "type": "Point", "coordinates": [ 8.879484018579209, 51.936589102395537 ] } },
{ "type": "Feature", "properties": { "plz": "44227", "Jahr": "2015", "Ort": "Dortmund", "Land": "DE" }, "geometry": { "type": "Point", "coordinates": [ 7.459671472092613, 51.51313251129497 ] } },
{ "type": "Feature", "properties": { "plz": "1069", "Jahr": "2015", "Ort": "Dresden", "Land": "DE" }, "geometry": { "type": "Point", "coordinates": [ 13.737678836653567, 51.0495170057753 ] } },
{ "type": "Feature", "properties": { "plz": "45307", "Jahr": "2015", "Ort": "Essen", "Land": "DE" }, "geometry": { "type": "Point", "coordinates": [ 7.014001011085562, 51.458962828167344 ] } },
{ "type": "Feature", "properties": { "plz": "60598", "Jahr": "2015", "Ort": "Frankfurt", "Land": "DE" }, "geometry": { "type": "Point", "coordinates": [ 8.681235338357885, 50.111070434982125 ] } },
{ "type": "Feature", "properties": { "plz": "30659", "Jahr": "2015", "Ort": "Hannover", "Land": "DE" }, "geometry": { "type": "Point", "coordinates": [ 9.740975546016868, 52.374679214564232 ] } },
{ "type": "Feature", "properties": { "plz": "7743", "Jahr": "2015", "Ort": "Jena", "Land": "DE" }, "geometry": { "type": "Point", "coordinates": [ 11.588004972164784, 50.928252313909198 ] } },
{ "type": "Feature", "properties": { "plz": "59174", "Jahr": "2015", "Ort": "Kamen", "Land": "DE" }, "geometry": { "type": "Point", "coordinates": [ 7.66077304339269, 51.59172232792028 ] } },
{ "type": "Feature", "properties": { "plz": "32657", "Jahr": "2015", "Ort": "Lemgo", "Land": "DE" }, "geometry": { "type": "Point", "coordinates": [ 8.901429248453608, 52.028124082695477 ] } },
{ "type": "Feature", "properties": { "plz": "14974", "Jahr": "2015", "Ort": "Ludwigsfelde", "Land": "DE" }, "geometry": { "type": "Point", "coordinates": [ 13.260800328494486, 52.301307680352807 ] } },
{ "type": "Feature", "properties": { "plz": "26506", "Jahr": "2015", "Ort": "Norden", "Land": "DE" }, "geometry": { "type": "Point", "coordinates": [ 7.205245790364879, 53.592939457927045 ] } },
{ "type": "Feature", "properties": { "plz": "14482", "Jahr": "2015", "Ort": "Potsdam", "Land": "DE" }, "geometry": { "type": "Point", "coordinates": [ 13.057475048672112, 52.401264668775021 ] } },
{ "type": "Feature", "properties": { "plz": "70184", "Jahr": "2015", "Ort": "Stuttgart", "Land": "DE" }, "geometry": { "type": "Point", "coordinates": [ 9.178996312212355, 48.778073834824426 ] } },
{ "type": "Feature", "properties": { "plz": "65205", "Jahr": "2015", "Ort": "Wiesbaden", "Land": "DE" }, "geometry": { "type": "Point", "coordinates": [ 8.243671769812233, 50.081716724370096 ] } },
{ "type": "Feature", "properties": { "plz": "69126", "Jahr": "2015", "Ort": "Heidelberg", "Land": "DE" }, "geometry": { "type": "Point", "coordinates": [ 8.691206153166021, 49.409502670960542 ] } },
{ "type": "Feature", "properties": { "plz": "24106", "Jahr": "2015", "Ort": "Kiel", "Land": "DE" }, "geometry": { "type": "Point", "coordinates": [ 10.136193321142008, 54.321265115217493 ] } },
{ "type": "Feature", "properties": { "plz": "53840", "Jahr": "2015", "Ort": "Troisdorf", "Land": "DE" }, "geometry": { "type": "Point", "coordinates": [ 7.1647564736806, 50.81442887896619 ] } },
{ "type": "Feature", "properties": { "plz": "54290", "Jahr": "2015", "Ort": "Trier", "Land": "DE" }, "geometry": { "type": "Point", "coordinates": [ 6.635782300593529, 49.7515176298445 ] } },
{ "type": "Feature", "properties": { "plz": "60318", "Jahr": "2015", "Ort": "Frankfurt", "Land": "DE" }, "geometry": { "type": "Point", "coordinates": [ 8.686479411935945, 50.125304615762758 ] } },
{ "type": "Feature", "properties": { "plz": "32423", "Jahr": "2015", "Ort": "Minden", "Land": "DE" }, "geometry": { "type": "Point", "coordinates": [ 6.468976860824742, 49.823600441099529 ] } },
{ "type": "Feature", "properties": { "plz": "38100", "Jahr": "2015", "Ort": "Braunschweig", "Land": "DE" }, "geometry": { "type": "Point", "coordinates": [ 10.521162387762859, 52.26503642095809 ] } },
{ "type": "Feature", "properties": { "plz": "3213", "Jahr": "2015", "Ort": "Frankenfels", "Land": "AT" }, "geometry": { "type": "Point", "coordinates": [ 15.325867918721769, 47.982259294485424 ] } },
{ "type": "Feature", "properties": { "plz": "45699", "Jahr": "2015", "Ort": "Herten", "Land": "DE" }, "geometry": { "type": "Point", "coordinates": [ 7.13713616992291, 51.594383356498838 ] } },
{ "type": "Feature", "properties": { "plz": "18437", "Jahr": "2015", "Ort": "Stralsund", "Land": "DE" }, "geometry": { "type": "Point", "coordinates": [ 13.06046468347397, 54.300499064082018 ] } },
{ "type": "Feature", "properties": { "plz": "1181", "Jahr": "2015", "Ort": "Amstelveen", "Land": "NL" }, "geometry": { "type": "Point", "coordinates": [ 4.845798375732444, 52.302655947987866 ] } },
{ "type": "Feature", "properties": { "plz": "1077", "Jahr": "2015", "Ort": "Amsterdam", "Land": "NL" }, "geometry": { "type": "Point", "coordinates": [ 4.896763713371537, 52.371954438759332 ] } },
{ "type": "Feature", "properties": { "plz": "55239", "Jahr": "2015", "Ort": "Gau-Odernheim", "Land": "DE" }, "geometry": { "type": "Point", "coordinates": [ 8.194674355121036, 49.783534837553169 ] } },
{ "type": "Feature", "properties": { "plz": "51643", "Jahr": "2015", "Ort": "Gummersbach", "Land": "DE" }, "geometry": { "type": "Point", "coordinates": [ 7.563101003056353, 51.027291894662909 ] } },
{ "type": "Feature", "properties": { "plz": "6132", "Jahr": "2015", "Ort": "Halle", "Land": "DE" }, "geometry": { "type": "Point", "coordinates": [ 11.971685235379287, 51.482201718307628 ] } },
{ "type": "Feature", "properties": { "plz": "55218", "Jahr": "2015", "Ort": "Ingelheim", "Land": "DE" }, "geometry": { "type": "Point", "coordinates": [ 8.054831945064947, 49.975527714595515 ] } },
{ "type": "Feature", "properties": { "plz": "26441", "Jahr": "2015", "Ort": "Jever", "Land": "DE" }, "geometry": { "type": "Point", "coordinates": [ 7.898536483386225, 53.572600738256753 ] } },
{ "type": "Feature", "properties": { "plz": "6005", "Jahr": "2015", "Ort": "Luzern", "Land": "CH" }, "geometry": { "type": "Point", "coordinates": [ 8.307566964493027, 47.051338363939188 ] } },
{ "type": "Feature", "properties": { "plz": "48155", "Jahr": "2015", "Ort": "Münster", "Land": "DE" }, "geometry": { "type": "Point", "coordinates": [ 7.62191224040717, 51.962611249379734 ] } },
{ "type": "Feature", "properties": { "plz": "42549", "Jahr": "2015", "Ort": "Velbert", "Land": "DE" }, "geometry": { "type": "Point", "coordinates": [ 7.058673369168899, 51.338379072866005 ] } },
{ "type": "Feature", "properties": { "plz": "78256", "Jahr": "2015", "Ort": "Steisslingen", "Land": "DE" }, "geometry": { "type": "Point", "coordinates": [ 8.927689830955122, 47.799515182529042 ] } },
{ "type": "Feature", "properties": { "plz": "44795", "Jahr": "2015", "Ort": "Bochum", "Land": "DE" }, "geometry": { "type": "Point", "coordinates": [ 7.218769734165613, 51.480868085079095 ] } },
{ "type": "Feature", "properties": { "plz": "28217", "Jahr": "2015", "Ort": "Bremen", "Land": "DE" }, "geometry": { "type": "Point", "coordinates": [ 7.957855240397045, 51.503393067500085 ] } },
{ "type": "Feature", "properties": { "plz": "64287", "Jahr": "2015", "Ort": "Darmstadt", "Land": "DE" }, "geometry": { "type": "Point", "coordinates": [ 8.652575589682495, 49.873565455128286 ] } },
{ "type": "Feature", "properties": { "plz": "70806", "Jahr": "2015", "Ort": "Kornwestheim", "Land": "DE" }, "geometry": { "type": "Point", "coordinates": [ 9.187322845454545, 48.860747399481873 ] } },
{ "type": "Feature", "properties": { "plz": "40880", "Jahr": "2015", "Ort": "Ratingen", "Land": "DE" }, "geometry": { "type": "Point", "coordinates": [ 6.847171596219244, 51.296583284858293 ] } },
{ "type": "Feature", "properties": { "plz": "1968", "Jahr": "2015", "Ort": "Senftenberg", "Land": "DE" }, "geometry": { "type": "Point", "coordinates": [ 14.003886373194332, 51.521058398546728 ] } },
{ "type": "Feature", "properties": { "plz": "29690", "Jahr": "2015", "Ort": "Schwarmstedt", "Land": "DE" }, "geometry": { "type": "Point", "coordinates": [ 9.616268807270801, 52.677139732681056 ] } },
{ "type": "Feature", "properties": { "plz": "67245", "Jahr": "2015", "Ort": "Lambsheim", "Land": "DE" }, "geometry": { "type": "Point", "coordinates": [ 8.286631345409223, 49.510520164692458 ] } },
{ "type": "Feature", "properties": { "plz": "49716", "Jahr": "2015", "Ort": "Meppen", "Land": "DE" }, "geometry": { "type": "Point", "coordinates": [ 7.294742080297396, 52.694196094627834 ] } },
{ "type": "Feature", "properties": { "plz": "32105", "Jahr": "2015", "Ort": "Bad Salzuflen", "Land": "DE" }, "geometry": { "type": "Point", "coordinates": [ 8.753184719263828, 52.085727195171025 ] } },
{ "type": "Feature", "properties": { "plz": "14770", "Jahr": "2015", "Ort": "Brandenburg an der Havel", "Land": "DE" }, "geometry": { "type": "Point", "coordinates": [ 12.549429668133159, 52.41091032973808 ] } },
{ "type": "Feature", "properties": { "plz": "53489", "Jahr": "2015", "Ort": "Sinzig", "Land": "DE" }, "geometry": { "type": "Point", "coordinates": [ 7.249161958227848, 50.545163767473198 ] } },
{ "type": "Feature", "properties": { "plz": "59823", "Jahr": "2015", "Ort": "Arnsberg", "Land": "DE" }, "geometry": { "type": "Point", "coordinates": [ 7.990580896626056, 51.428839227592029 ] } },
{ "type": "Feature", "properties": { "plz": "49565", "Jahr": "2015", "Ort": "Bramsche", "Land": "DE" }, "geometry": { "type": "Point", "coordinates": [ 7.979364262375489, 52.407897896543275 ] } },
{ "type": "Feature", "properties": { "plz": "3050", "Jahr": "2015", "Ort": "Cottbus", "Land": "DE" }, "geometry": { "type": "Point", "coordinates": [ 14.32270730834907, 51.756433023417685 ] } },
{ "type": "Feature", "properties": { "plz": "16225", "Jahr": "2015", "Ort": "Eberswalde", "Land": "DE" }, "geometry": { "type": "Point", "coordinates": [ 13.798255167010311, 52.834568968340264 ] } },
{ "type": "Feature", "properties": { "plz": "14612", "Jahr": "2015", "Ort": "Falkensee", "Land": "DE" }, "geometry": { "type": "Point", "coordinates": [ 13.085818690721647, 52.567773605725101 ] } },
{ "type": "Feature", "properties": { "plz": "23552", "Jahr": "2015", "Ort": "Magdeburg", "Land": "DE" }, "geometry": { "type": "Point", "coordinates": [ 11.638102831337985, 52.131610634696706 ] } },
{ "type": "Feature", "properties": { "plz": "44621", "Jahr": "2015", "Ort": "Herne", "Land": "DE" }, "geometry": { "type": "Point", "coordinates": [ 7.219279371251546, 51.538006582621385 ] } },
{ "type": "Feature", "properties": { "plz": "70794", "Jahr": "2015", "Ort": "Filderstadt", "Land": "DE" }, "geometry": { "type": "Point", "coordinates": [ 9.217951079262244, 48.676588704055128 ] } },
{ "type": "Feature", "properties": { "plz": "60318", "Jahr": "2015", "Ort": "Frankfurt am Main", "Land": "DE" }, "geometry": { "type": "Point", "coordinates": [ 8.686479411935945, 50.125304615762758 ] } },
{ "type": "Feature", "properties": { "plz": "58453", "Jahr": "2015", "Ort": "Witten", "Land": "DE" }, "geometry": { "type": "Point", "coordinates": [ 7.371460789890613, 51.430213775352236 ] } },
{ "type": "Feature", "properties": { "plz": "84032", "Jahr": "2015", "Ort": "Pfettrach", "Land": "DE" }, "geometry": { "type": "Point", "coordinates": [ 12.076022776150545, 48.574184052818843 ] } },
{ "type": "Feature", "properties": { "plz": "23843", "Jahr": "2015", "Ort": "Bad Oldesloe", "Land": "DE" }, "geometry": { "type": "Point", "coordinates": [ 10.37463000080057, 53.809168585971832 ] } },
{ "type": "Feature", "properties": { "plz": "51399", "Jahr": "2015", "Ort": "Burscheid", "Land": "DE" }, "geometry": { "type": "Point", "coordinates": [ 7.120871441862843, 51.082248585351884 ] } },
{ "type": "Feature", "properties": { "plz": "17291", "Jahr": "2015", "Ort": "Dauerthal", "Land": "DE" }, "geometry": { "type": "Point", "coordinates": [ 13.968574968167854, 53.364979238460627 ] } },
{ "type": "Feature", "properties": { "plz": "48317", "Jahr": "2015", "Ort": "Drensteinfurt", "Land": "DE" }, "geometry": { "type": "Point", "coordinates": [ 7.73910892566121, 51.795953381308074 ] } },
{ "type": "Feature", "properties": { "plz": "7500", "Jahr": "2015", "Ort": "Enschede", "Land": "NL" }, "geometry": { "type": "Point", "coordinates": [ 6.89124703875016, 52.221666643475707 ] } },
{ "type": "Feature", "properties": { "plz": "37136", "Jahr": "2015", "Ort": "Ebergötzen", "Land": "DE" }, "geometry": { "type": "Point", "coordinates": [ 10.10710684667202, 51.570028478245639 ] } },
{ "type": "Feature", "properties": { "plz": "6020", "Jahr": "2015", "Ort": "Emmenbrücke", "Land": "CH" }, "geometry": { "type": "Point", "coordinates": [ 8.272566263895353, 47.077261546239598 ] } },
{ "type": "Feature", "properties": { "plz": "9224", "Jahr": "2015", "Ort": "Grüna", "Land": "DE" }, "geometry": { "type": "Point", "coordinates": [ 12.790106835107471, 50.811321737406956 ] } },
{ "type": "Feature", "properties": { "plz": "48329", "Jahr": "2015", "Ort": "Havixbeck", "Land": "DE" }, "geometry": { "type": "Point", "coordinates": [ 7.41320084885453, 51.974699239296378 ] } },
{ "type": "Feature", "properties": { "plz": "4916", "Jahr": "2015", "Ort": "Kranzberg", "Land": "DE" }, "geometry": { "type": "Point", "coordinates": [ 13.235120908856645, 51.693038682829346 ] } },
{ "type": "Feature", "properties": { "plz": "85402", "Jahr": "2015", "Ort": "Kranzberg", "Land": "DE" }, "geometry": { "type": "Point", "coordinates": [ 11.611774140736951, 48.406153603122988 ] } },
{ "type": "Feature", "properties": { "plz": "73372", "Jahr": "2015", "Ort": "Le Bourget-du-Lac", "Land": "FR" }, "geometry": { "type": "Point", "coordinates": [ 5.861450860399232, 45.651659637294436 ] } },
{ "type": "Feature", "properties": { "plz": "2315", "Jahr": "2015", "Ort": "Leiden", "Land": "NL" }, "geometry": { "type": "Point", "coordinates": [ 4.490783156311285, 52.15927711528159 ] } },
{ "type": "Feature", "properties": { "plz": "22846", "Jahr": "2015", "Ort": "Norderstedt", "Land": "DE" }, "geometry": { "type": "Point", "coordinates": [ 9.992335531232181, 53.70862321995655 ] } },
{ "type": "Feature", "properties": { "plz": "8587", "Jahr": "2015", "Ort": "Oberaach", "Land": "CH" }, "geometry": { "type": "Point", "coordinates": [ 9.268448084231741, 47.557376508287867 ] } },
{ "type": "Feature", "properties": { "plz": "26129", "Jahr": "2015", "Ort": "Oldenburg ", "Land": "DE" }, "geometry": { "type": "Point", "coordinates": [ 8.21582433919637, 53.139046237668317 ] } },
{ "type": "Feature", "properties": { "plz": "67574", "Jahr": "2015", "Ort": "Osthofen", "Land": "DE" }, "geometry": { "type": "Point", "coordinates": [ 8.325584804659476, 49.704984604485489 ] } },
{ "type": "Feature", "properties": { "plz": "72108", "Jahr": "2015", "Ort": "Rottenburg a.N.", "Land": "DE" }, "geometry": { "type": "Point", "coordinates": [ 8.935854252149435, 48.473020934729604 ] } },
{ "type": "Feature", "properties": { "plz": "27383", "Jahr": "2015", "Ort": "Scheeßel", "Land": "DE" }, "geometry": { "type": "Point", "coordinates": [ 9.487558502661207, 53.166178858956876 ] } },
{ "type": "Feature", "properties": { "plz": "45549", "Jahr": "2015", "Ort": "Sprockhövel", "Land": "DE" }, "geometry": { "type": "Point", "coordinates": [ 7.249393823287354, 51.366215563405227 ] } },
{ "type": "Feature", "properties": { "plz": "38123", "Jahr": "2015", "Ort": "Trento", "Land": "IT" }, "geometry": { "type": "Point", "coordinates": [ 11.125435627701204, 46.069344387853818 ] } },
{ "type": "Feature", "properties": { "plz": "3544", "Jahr": "2015", "Ort": "Utrecht", "Land": "NL" }, "geometry": { "type": "Point", "coordinates": [ 5.103614529255633, 52.093757017280772 ] } },
{ "type": "Feature", "properties": { "plz": "69190", "Jahr": "2015", "Ort": "Walldorf", "Land": "DE" }, "geometry": { "type": "Point", "coordinates": [ 8.641200916487746, 49.301580709780879 ] } },
{ "type": "Feature", "properties": { "plz": "48231", "Jahr": "2015", "Ort": "Warendorf", "Land": "DE" }, "geometry": { "type": "Point", "coordinates": [ 7.990840654368704, 51.954001412296229 ] } },
{ "type": "Feature", "properties": { "plz": null, "Jahr": "2015", "Ort": "Ysselsteyn", "Land": "NL" }, "geometry": { "type": "Point", "coordinates": [ 5.896308836576146, 51.489844539679453 ] } }
]
}
