{
"type": "FeatureCollection",
"name": "points2021",
"crs": { "type": "name", "properties": { "name": "urn:ogc:def:crs:EPSG::3857" } },
"features": [
{ "type": "Feature", "properties": { "plz": "10115", "Jahr": "2021", "Ort": "Berlin", "Land": "DE", "color": "#5681c7" }, "geometry": { "type": "Point", "coordinates": [ 1489975.622678941581398, 6896921.017010566778481 ] } },
{ "type": "Feature", "properties": { "plz": "14469", "Jahr": "2021", "Ort": "Potsdam", "Land": "DE", "color": "#5681c7" }, "geometry": { "type": "Point", "coordinates": [ 1450100.680309427902102, 6877737.296467649750412 ] } },
{ "type": "Feature", "properties": { "plz": "14612", "Jahr": "2021", "Ort": "Falkensee", "Land": "DE", "color": "#5681c7" }, "geometry": { "type": "Point", "coordinates": [ 1456256.880447472445667, 6904561.819518758915365 ] } },
{ "type": "Feature", "properties": { "plz": "16225", "Jahr": "2021", "Ort": "Eberswalde", "Land": "DE", "color": "#5681c7" }, "geometry": { "type": "Point", "coordinates": [ 1535420.851541980635375, 6950437.30759618896991 ] } },
{ "type": "Feature", "properties": { "plz": "17033", "Jahr": "2021", "Ort": "Neubrandenburg", "Land": "DE", "color": "#5681c7" }, "geometry": { "type": "Point", "coordinates": [ 1472248.595469861989841, 7082160.367800957523286 ] } },
{ "type": "Feature", "properties": { "plz": "18057", "Jahr": "2021", "Ort": "Rostock", "Land": "DE", "color": "#5681c7" }, "geometry": { "type": "Point", "coordinates": [ 1347503.852816671133041, 7186951.487394808791578 ] } },
{ "type": "Feature", "properties": { "plz": "18273", "Jahr": "2021", "Ort": "Güstrow", "Land": "DE", "color": "#5681c7" }, "geometry": { "type": "Point", "coordinates": [ 1358609.973562133731321, 7130715.810462417080998 ] } },
{ "type": "Feature", "properties": { "plz": "19059", "Jahr": "2021", "Ort": "Schwerin", "Land": "DE", "color": "#5681c7" }, "geometry": { "type": "Point", "coordinates": [ 1268018.725508237956092, 7101824.043371546082199 ] } },
{ "type": "Feature", "properties": { "plz": "19209", "Jahr": "2021", "Ort": "Klein Welzin", "Land": "DE", "color": "#5681c7" }, "geometry": { "type": "Point", "coordinates": [ 1244597.274707945296541, 7100244.879991490393877 ] } },
{ "type": "Feature", "properties": { "plz": "20539", "Jahr": "2021", "Ort": "Hamburg", "Land": "DE", "color": "#5681c7" }, "geometry": { "type": "Point", "coordinates": [ 1118299.392381006618962, 7081030.272805341519415 ] } },
{ "type": "Feature", "properties": { "plz": "24106", "Jahr": "2021", "Ort": "Kiel", "Land": "DE", "color": "#5681c7" }, "geometry": { "type": "Point", "coordinates": [ 1126651.05050320411101, 7238391.391994543373585 ] } },
{ "type": "Feature", "properties": { "plz": "24976", "Jahr": "2021", "Ort": "Handewitt", "Land": "DE", "color": "#5681c7" }, "geometry": { "type": "Point", "coordinates": [ 1047362.455683044041507, 7311710.458063622936606 ] } },
{ "type": "Feature", "properties": { "plz": "25337", "Jahr": "2021", "Ort": "Elmshorn", "Land": "DE", "color": "#5681c7" }, "geometry": { "type": "Point", "coordinates": [ 1080987.429334574146196, 7122276.917748767882586 ] } },
{ "type": "Feature", "properties": { "plz": "26122", "Jahr": "2021", "Ort": "Oldenburg", "Land": "DE", "color": "#5681c7" }, "geometry": { "type": "Point", "coordinates": [ 913790.750594526529312, 7008446.290331739000976 ] } },
{ "type": "Feature", "properties": { "plz": "26919", "Jahr": "2021", "Ort": "Brake", "Land": "DE", "color": "#5681c7" }, "geometry": { "type": "Point", "coordinates": [ 942105.927469596150331, 7044759.51233409717679 ] } },
{ "type": "Feature", "properties": { "plz": "27568", "Jahr": "2021", "Ort": "Bremerhaven", "Land": "DE", "color": "#5681c7" }, "geometry": { "type": "Point", "coordinates": [ 952872.97780522715766, 7088900.27197684161365 ] } },
{ "type": "Feature", "properties": { "plz": "27711", "Jahr": "2021", "Ort": "Osterholz-Scharmbeck", "Land": "DE", "color": "#5681c7" }, "geometry": { "type": "Point", "coordinates": [ 978771.768231998896226, 7030445.829044946469367 ] } },
{ "type": "Feature", "properties": { "plz": "28209", "Jahr": "2021", "Ort": "Bremen", "Land": "DE", "color": "#5681c7" }, "geometry": { "type": "Point", "coordinates": [ 982854.306616842513904, 6999136.585860761813819 ] } },
{ "type": "Feature", "properties": { "plz": "29221", "Jahr": "2021", "Ort": "Celle", "Land": "DE", "color": "#5681c7" }, "geometry": { "type": "Point", "coordinates": [ 1122365.966900831786916, 6912444.902377057820559 ] } },
{ "type": "Feature", "properties": { "plz": "30159", "Jahr": "2021", "Ort": "Hannover", "Land": "DE", "color": "#5681c7" }, "geometry": { "type": "Point", "coordinates": [ 1086069.106854101642966, 6867649.066901707090437 ] } },
{ "type": "Feature", "properties": { "plz": "32423", "Jahr": "2021", "Ort": "Minden", "Land": "DE", "color": "#5681c7" }, "geometry": { "type": "Point", "coordinates": [ 996347.265592640615068, 6853636.187998312525451 ] } },
{ "type": "Feature", "properties": { "plz": "32657", "Jahr": "2021", "Ort": "Lemgo", "Land": "DE", "color": "#5681c7" }, "geometry": { "type": "Point", "coordinates": [ 990950.754455342306755, 6806209.960695100948215 ] } },
{ "type": "Feature", "properties": { "plz": "32689", "Jahr": "2021", "Ort": "Kalletal", "Land": "DE", "color": "#5681c7" }, "geometry": { "type": "Point", "coordinates": [ 997318.94413258053828, 6822179.543465659953654 ] } },
{ "type": "Feature", "properties": { "plz": "32756", "Jahr": "2021", "Ort": "Detmold", "Land": "DE", "color": "#5681c7" }, "geometry": { "type": "Point", "coordinates": [ 987904.701294397702441, 6789000.357538553886116 ] } },
{ "type": "Feature", "properties": { "plz": "33602", "Jahr": "2021", "Ort": "Bielefeld", "Land": "DE", "color": "#5681c7" }, "geometry": { "type": "Point", "coordinates": [ 950275.048892425955273, 6804247.884884022176266 ] } },
{ "type": "Feature", "properties": { "plz": "34125", "Jahr": "2021", "Ort": "Kassel", "Land": "DE", "color": "#5681c7" }, "geometry": { "type": "Point", "coordinates": [ 1061313.071042333263904, 6680603.473572165705264 ] } },
{ "type": "Feature", "properties": { "plz": "34369", "Jahr": "2021", "Ort": "Hofgeismar", "Land": "DE", "color": "#5681c7" }, "geometry": { "type": "Point", "coordinates": [ 1057066.976621120935306, 6709463.259403656236827 ] } },
{ "type": "Feature", "properties": { "plz": "35037", "Jahr": "2021", "Ort": "Marburg", "Land": "DE", "color": "#5681c7" }, "geometry": { "type": "Point", "coordinates": [ 974228.509936942020431, 6586478.322558436542749 ] } },
{ "type": "Feature", "properties": { "plz": "35410", "Jahr": "2021", "Ort": "Hungen", "Land": "DE", "color": "#5681c7" }, "geometry": { "type": "Point", "coordinates": [ 991533.525550682214089, 6528146.050856037065387 ] } },
{ "type": "Feature", "properties": { "plz": "38118", "Jahr": "2021", "Ort": "Braunschweig", "Land": "DE", "color": "#5681c7" }, "geometry": { "type": "Point", "coordinates": [ 1168910.982286692596972, 6847397.438414367847145 ] } },
{ "type": "Feature", "properties": { "plz": "38820", "Jahr": "2021", "Ort": "Halberstadt", "Land": "DE", "color": "#5681c7" }, "geometry": { "type": "Point", "coordinates": [ 1229195.336542477132753, 6780076.133171917870641 ] } },
{ "type": "Feature", "properties": { "plz": "39104", "Jahr": "2021", "Ort": "Magdeburg", "Land": "DE", "color": "#5681c7" }, "geometry": { "type": "Point", "coordinates": [ 1295367.097568130819127, 6821620.600032541900873 ] } },
{ "type": "Feature", "properties": { "plz": "39524", "Jahr": "2021", "Ort": "Schramberg OT Sulgen", "Land": "DE", "color": "#5681c7" }, "geometry": { "type": "Point", "coordinates": [ 1345450.990868004504591, 6918230.022630834020674 ] } },
{ "type": "Feature", "properties": { "plz": "40476", "Jahr": "2021", "Ort": "Düsseldorf", "Land": "DE", "color": "#5681c7" }, "geometry": { "type": "Point", "coordinates": [ 754995.381477708462626, 6665261.621971475891769 ] } },
{ "type": "Feature", "properties": { "plz": "40699", "Jahr": "2021", "Ort": "Erkrath", "Land": "DE", "color": "#5681c7" }, "geometry": { "type": "Point", "coordinates": [ 771191.354371379013173, 6659828.607404870912433 ] } },
{ "type": "Feature", "properties": { "plz": "40878", "Jahr": "2021", "Ort": "Ratingen", "Land": "DE", "color": "#5681c7" }, "geometry": { "type": "Point", "coordinates": [ 762235.102437250316143, 6673554.443276457488537 ] } },
{ "type": "Feature", "properties": { "plz": "41747", "Jahr": "2021", "Ort": "Viersen", "Land": "DE", "color": "#5681c7" }, "geometry": { "type": "Point", "coordinates": [ 712702.48590557766147, 6670077.605349192395806 ] } },
{ "type": "Feature", "properties": { "plz": "42109", "Jahr": "2021", "Ort": "Wuppertal", "Land": "DE", "color": "#5681c7" }, "geometry": { "type": "Point", "coordinates": [ 795734.45668322709389, 6670376.151831040158868 ] } },
{ "type": "Feature", "properties": { "plz": "42651", "Jahr": "2021", "Ort": "Solingen", "Land": "DE", "color": "#5681c7" }, "geometry": { "type": "Point", "coordinates": [ 790616.370313205989078, 6652530.078833901323378 ] } },
{ "type": "Feature", "properties": { "plz": "44139", "Jahr": "2021", "Ort": "Dortmund", "Land": "DE", "color": "#5681c7" }, "geometry": { "type": "Point", "coordinates": [ 830740.259099195478484, 6709714.639518365263939 ] } },
{ "type": "Feature", "properties": { "plz": "44623", "Jahr": "2021", "Ort": "Herne", "Land": "DE", "color": "#5681c7" }, "geometry": { "type": "Point", "coordinates": [ 803268.95621117472183, 6718562.761874049901962 ] } },
{ "type": "Feature", "properties": { "plz": "44793", "Jahr": "2021", "Ort": "Bochum", "Land": "DE", "color": "#5681c7" }, "geometry": { "type": "Point", "coordinates": [ 799467.612169750616886, 6707351.095567927695811 ] } },
{ "type": "Feature", "properties": { "plz": "45128", "Jahr": "2021", "Ort": "Essen", "Land": "DE", "color": "#5681c7" }, "geometry": { "type": "Point", "coordinates": [ 780639.686813039006665, 6700555.639719308353961 ] } },
{ "type": "Feature", "properties": { "plz": "46399", "Jahr": "2021", "Ort": "Bocholt", "Land": "DE", "color": "#5681c7" }, "geometry": { "type": "Point", "coordinates": [ 733284.562314820475876, 6776959.176143285818398 ] } },
{ "type": "Feature", "properties": { "plz": "46483", "Jahr": "2021", "Ort": "Wesel", "Land": "DE", "color": "#5681c7" }, "geometry": { "type": "Point", "coordinates": [ 736238.849007333978079, 6739203.44348513148725 ] } },
{ "type": "Feature", "properties": { "plz": "47057", "Jahr": "2021", "Ort": "Duisburg", "Land": "DE", "color": "#5681c7" }, "geometry": { "type": "Point", "coordinates": [ 756839.949660434969701, 6695874.899261982180178 ] } },
{ "type": "Feature", "properties": { "plz": "47475", "Jahr": "2021", "Ort": "Kamp-Lintfort", "Land": "DE", "color": "#5681c7" }, "geometry": { "type": "Point", "coordinates": [ 725828.190586440498009, 6713048.822194452397525 ] } },
{ "type": "Feature", "properties": { "plz": "47533", "Jahr": "2021", "Ort": "Kleve", "Land": "DE", "color": "#5681c7" }, "geometry": { "type": "Point", "coordinates": [ 681816.081987620913424, 6764592.845451661385596 ] } },
{ "type": "Feature", "properties": { "plz": "47798", "Jahr": "2021", "Ort": "Krefeld", "Land": "DE", "color": "#5681c7" }, "geometry": { "type": "Point", "coordinates": [ 730051.518990554846823, 6680185.798164069652557 ] } },
{ "type": "Feature", "properties": { "plz": "47918", "Jahr": "2021", "Ort": "Tönisvorst", "Land": "DE", "color": "#5681c7" }, "geometry": { "type": "Point", "coordinates": [ 718286.374109546188265, 6677462.651532304473221 ] } },
{ "type": "Feature", "properties": { "plz": "48145", "Jahr": "2021", "Ort": "Münster", "Land": "DE", "color": "#5681c7" }, "geometry": { "type": "Point", "coordinates": [ 851991.550317858927883, 6793748.631976874545217 ] } },
{ "type": "Feature", "properties": { "plz": "48231", "Jahr": "2021", "Ort": "Warendorf", "Land": "DE", "color": "#5681c7" }, "geometry": { "type": "Point", "coordinates": [ 885919.815122700994834, 6790648.228512139990926 ] } },
{ "type": "Feature", "properties": { "plz": "48369", "Jahr": "2021", "Ort": "Saerbeck", "Land": "DE", "color": "#5681c7" }, "geometry": { "type": "Point", "coordinates": [ 850278.343123983824626, 6832637.6191287022084 ] } },
{ "type": "Feature", "properties": { "plz": "49074", "Jahr": "2021", "Ort": "Osnabrück", "Land": "DE", "color": "#5681c7" }, "geometry": { "type": "Point", "coordinates": [ 896569.955888763768598, 6850378.285686620511115 ] } },
{ "type": "Feature", "properties": { "plz": "49593", "Jahr": "2021", "Ort": "Bersenbrück", "Land": "DE", "color": "#5681c7" }, "geometry": { "type": "Point", "coordinates": [ 884244.551952566369437, 6902653.952362678013742 ] } },
{ "type": "Feature", "properties": { "plz": "49716", "Jahr": "2021", "Ort": "Meppen", "Land": "DE", "color": "#5681c7" }, "geometry": { "type": "Point", "coordinates": [ 811089.570376944961026, 6928266.92394597735256 ] } },
{ "type": "Feature", "properties": { "plz": "50321", "Jahr": "2021", "Ort": "Brühl", "Land": "DE", "color": "#5681c7" }, "geometry": { "type": "Point", "coordinates": [ 766619.420211994205602, 6589672.997850051149726 ] } },
{ "type": "Feature", "properties": { "plz": "50374", "Jahr": "2021", "Ort": "Erftstadt", "Land": "DE", "color": "#5681c7" }, "geometry": { "type": "Point", "coordinates": [ 753285.558998504071496, 6584768.704186126589775 ] } },
{ "type": "Feature", "properties": { "plz": "50668", "Jahr": "2021", "Ort": "Köln", "Land": "DE", "color": "#5681c7" }, "geometry": { "type": "Point", "coordinates": [ 775100.193820924148895, 6612450.829391594044864 ] } },
{ "type": "Feature", "properties": { "plz": "51674", "Jahr": "2021", "Ort": "Wiehl", "Land": "DE", "color": "#5681c7" }, "geometry": { "type": "Point", "coordinates": [ 838248.015551556251012, 6613808.610631809569895 ] } },
{ "type": "Feature", "properties": { "plz": "52070", "Jahr": "2021", "Ort": "Aachen", "Land": "DE", "color": "#5681c7" }, "geometry": { "type": "Point", "coordinates": [ 678628.682935244753025, 6584907.162048800848424 ] } },
{ "type": "Feature", "properties": { "plz": "52349", "Jahr": "2021", "Ort": "Dürem", "Land": "DE", "color": "#5681c7" }, "geometry": { "type": "Point", "coordinates": [ 720351.16236532991752, 6586111.282165599986911 ] } },
{ "type": "Feature", "properties": { "plz": "53111", "Jahr": "2021", "Ort": "Bonn", "Land": "DE", "color": "#5681c7" }, "geometry": { "type": "Point", "coordinates": [ 790193.93690944951959, 6575469.882656598463655 ] } },
{ "type": "Feature", "properties": { "plz": "53332", "Jahr": "2021", "Ort": "Bornheim", "Land": "DE", "color": "#5681c7" }, "geometry": { "type": "Point", "coordinates": [ 774235.447640774655156, 6580399.953952851705253 ] } },
{ "type": "Feature", "properties": { "plz": "53340", "Jahr": "2021", "Ort": "Meckenheim", "Land": "DE", "color": "#5681c7" }, "geometry": { "type": "Point", "coordinates": [ 780919.481629815301858, 6553143.718094684183598 ] } },
{ "type": "Feature", "properties": { "plz": "53520", "Jahr": "2021", "Ort": "Schuld", "Land": "DE", "color": "#5681c7" }, "geometry": { "type": "Point", "coordinates": [ 759549.919721618527547, 6505232.8689886899665 ] } },
{ "type": "Feature", "properties": { "plz": "53557", "Jahr": "2021", "Ort": "Bad Hönningen", "Land": "DE", "color": "#5681c7" }, "geometry": { "type": "Point", "coordinates": [ 816324.895853912341408, 6538300.695169009268284 ] } },
{ "type": "Feature", "properties": { "plz": "53604", "Jahr": "2021", "Ort": "Bad Honnef", "Land": "DE", "color": "#5681c7" }, "geometry": { "type": "Point", "coordinates": [ 810291.548008884885348, 6560229.326894314959645 ] } },
{ "type": "Feature", "properties": { "plz": "53773", "Jahr": "2021", "Ort": "Hennef", "Land": "DE", "color": "#5681c7" }, "geometry": { "type": "Point", "coordinates": [ 815911.030244575347751, 6578215.151332754641771 ] } },
{ "type": "Feature", "properties": { "plz": "53819", "Jahr": "2021", "Ort": "Neunkirchen-Seelscheid", "Land": "DE", "color": "#5681c7" }, "geometry": { "type": "Point", "coordinates": [ 816063.904421293758787, 6595543.198504553176463 ] } },
{ "type": "Feature", "properties": { "plz": "53840", "Jahr": "2021", "Ort": "Troisdorf", "Land": "DE", "color": "#5681c7" }, "geometry": { "type": "Point", "coordinates": [ 797577.04230793484021, 6588533.752889759838581 ] } },
{ "type": "Feature", "properties": { "plz": "53879", "Jahr": "2021", "Ort": "Euskirchen", "Land": "DE", "color": "#5681c7" }, "geometry": { "type": "Point", "coordinates": [ 755274.595457640709355, 6560933.827972503378987 ] } },
{ "type": "Feature", "properties": { "plz": "54290", "Jahr": "2021", "Ort": "Trier", "Land": "DE", "color": "#5681c7" }, "geometry": { "type": "Point", "coordinates": [ 738691.90671708912123, 6403353.762120178900659 ] } },
{ "type": "Feature", "properties": { "plz": "54595", "Jahr": "2021", "Ort": "Prüm", "Land": "DE", "color": "#5681c7" }, "geometry": { "type": "Point", "coordinates": [ 714523.789866322185844, 6484639.828034062869847 ] } },
{ "type": "Feature", "properties": { "plz": "55116", "Jahr": "2021", "Ort": "Mainz", "Land": "DE", "color": "#5681c7" }, "geometry": { "type": "Point", "coordinates": [ 920852.997793718939647, 6446387.376258381642401 ] } },
{ "type": "Feature", "properties": { "plz": "55252", "Jahr": "2021", "Ort": "Mainz-Kastel", "Land": "DE", "color": "#5681c7" }, "geometry": { "type": "Point", "coordinates": [ 922327.828322022804059, 6450442.264091730117798 ] } },
{ "type": "Feature", "properties": { "plz": "56070", "Jahr": "2021", "Ort": "Koblenz", "Land": "DE", "color": "#5681c7" }, "geometry": { "type": "Point", "coordinates": [ 841746.521369833499193, 6509586.704778870567679 ] } },
{ "type": "Feature", "properties": { "plz": "56112", "Jahr": "2021", "Ort": "Lahnstein", "Land": "DE", "color": "#5681c7" }, "geometry": { "type": "Point", "coordinates": [ 850353.44241214194335, 6498760.322829812765121 ] } },
{ "type": "Feature", "properties": { "plz": "57223", "Jahr": "2021", "Ort": "Kreuztal", "Land": "DE", "color": "#5681c7" }, "geometry": { "type": "Point", "coordinates": [ 888985.984799047699198, 6618014.641351781785488 ] } },
{ "type": "Feature", "properties": { "plz": "58453", "Jahr": "2021", "Ort": "Witten", "Land": "DE", "color": "#5681c7" }, "geometry": { "type": "Point", "coordinates": [ 820587.261533205281012, 6697749.292526879347861 ] } },
{ "type": "Feature", "properties": { "plz": "59368", "Jahr": "2021", "Ort": "Werne", "Land": "DE", "color": "#5681c7" }, "geometry": { "type": "Point", "coordinates": [ 848946.12448721867986, 6742179.311328412033617 ] } },
{ "type": "Feature", "properties": { "plz": "60311", "Jahr": "2021", "Ort": "Frankfurt", "Land": "DE", "color": "#5681c7" }, "geometry": { "type": "Point", "coordinates": [ 966545.152966709458269, 6465466.088334112428129 ] } },
{ "type": "Feature", "properties": { "plz": "60318", "Jahr": "2021", "Ort": "Frankfurt am Main", "Land": "DE", "color": "#5681c7" }, "geometry": { "type": "Point", "coordinates": [ 966974.464922963874415, 6468004.739215353503823 ] } },
{ "type": "Feature", "properties": { "plz": "63303", "Jahr": "2021", "Ort": "Dreieich", "Land": "DE", "color": "#5681c7" }, "geometry": { "type": "Point", "coordinates": [ 970313.1368710558163, 6448048.618009870871902 ] } },
{ "type": "Feature", "properties": { "plz": "64297", "Jahr": "2021", "Ort": "Darmstadt", "Land": "DE", "color": "#5681c7" }, "geometry": { "type": "Point", "coordinates": [ 962330.855096082086675, 6415732.446028104051948 ] } },
{ "type": "Feature", "properties": { "plz": "65185", "Jahr": "2021", "Ort": "Wiesbaden", "Land": "DE", "color": "#5681c7" }, "geometry": { "type": "Point", "coordinates": [ 917224.340059412643313, 6459448.219795787706971 ] } },
{ "type": "Feature", "properties": { "plz": "67146", "Jahr": "2021", "Ort": "Deidesheim", "Land": "DE", "color": "#5681c7" }, "geometry": { "type": "Point", "coordinates": [ 910673.477453873376362, 6345727.102692948654294 ] } },
{ "type": "Feature", "properties": { "plz": "67245", "Jahr": "2021", "Ort": "Lambsheim", "Land": "DE", "color": "#5681c7" }, "geometry": { "type": "Point", "coordinates": [ 922686.309590674354695, 6363308.75308870151639 ] } },
{ "type": "Feature", "properties": { "plz": "68161", "Jahr": "2021", "Ort": "Mannheim", "Land": "DE", "color": "#5681c7" }, "geometry": { "type": "Point", "coordinates": [ 943142.499892949010246, 6357863.194972543045878 ] } },
{ "type": "Feature", "properties": { "plz": "70173", "Jahr": "2021", "Ort": "Stuttgart", "Land": "DE", "color": "#5681c7" }, "geometry": { "type": "Point", "coordinates": [ 1022117.126895683119074, 6237845.106626817025244 ] } },
{ "type": "Feature", "properties": { "plz": "71297", "Jahr": "2021", "Ort": "Mönsheim", "Land": "DE", "color": "#5681c7" }, "geometry": { "type": "Point", "coordinates": [ 987203.559333438402973, 6250873.350105222314596 ] } },
{ "type": "Feature", "properties": { "plz": "71332", "Jahr": "2021", "Ort": "Waiblingen", "Land": "DE", "color": "#5681c7" }, "geometry": { "type": "Point", "coordinates": [ 1036208.125665284693241, 6245459.3385364189744 ] } },
{ "type": "Feature", "properties": { "plz": "72202", "Jahr": "2021", "Ort": "Nagold", "Land": "DE", "color": "#5681c7" }, "geometry": { "type": "Point", "coordinates": [ 970827.293934509623796, 6197247.390643835999072 ] } },
{ "type": "Feature", "properties": { "plz": "73728", "Jahr": "2021", "Ort": "Esslingen am Neckar", "Land": "DE", "color": "#5681c7" }, "geometry": { "type": "Point", "coordinates": [ 1036194.100812994176522, 6230982.606399863027036 ] } },
{ "type": "Feature", "properties": { "plz": "75031", "Jahr": "2021", "Ort": "Eppingen", "Land": "DE", "color": "#5681c7" }, "geometry": { "type": "Point", "coordinates": [ 991537.622903981013224, 6298227.341244098730385 ] } },
{ "type": "Feature", "properties": { "plz": "76131", "Jahr": "2021", "Ort": "Karlsruhe", "Land": "DE", "color": "#5681c7" }, "geometry": { "type": "Point", "coordinates": [ 937548.888494476792403, 6281554.260437095537782 ] } },
{ "type": "Feature", "properties": { "plz": "76228", "Jahr": "2021", "Ort": "Rheinstetten", "Land": "DE", "color": "#5681c7" }, "geometry": { "type": "Point", "coordinates": [ 944035.616230960120447, 6268048.377676069736481 ] } },
{ "type": "Feature", "properties": { "plz": "76437", "Jahr": "2021", "Ort": "Rastatt", "Land": "DE", "color": "#5681c7" }, "geometry": { "type": "Point", "coordinates": [ 911221.245143299922347, 6251676.195194829255342 ] } },
{ "type": "Feature", "properties": { "plz": "79098", "Jahr": "2021", "Ort": "Freiburg", "Land": "DE", "color": "#5681c7" }, "geometry": { "type": "Point", "coordinates": [ 873693.639239776763134, 6106000.323492909781635 ] } },
{ "type": "Feature", "properties": { "plz": "79100", "Jahr": "2021", "Ort": "Freiburg i. Br.", "Land": "DE", "color": "#5681c7" }, "geometry": { "type": "Point", "coordinates": [ 875595.935369260027073, 6098397.373664051294327 ] } },
{ "type": "Feature", "properties": { "plz": "79312", "Jahr": "2021", "Ort": "Emmendingen", "Land": "DE", "color": "#5681c7" }, "geometry": { "type": "Point", "coordinates": [ 875529.934549763333052, 6127352.154023328796029 ] } },
{ "type": "Feature", "properties": { "plz": "79539", "Jahr": "2021", "Ort": "Lörrach", "Land": "DE", "color": "#5681c7" }, "geometry": { "type": "Point", "coordinates": [ 852667.12513358076103, 6043221.397633444517851 ] } },
{ "type": "Feature", "properties": { "plz": "80335", "Jahr": "2021", "Ort": "München", "Land": "DE", "color": "#5681c7" }, "geometry": { "type": "Point", "coordinates": [ 1286182.041712632635608, 6131102.808432611636817 ] } },
{ "type": "Feature", "properties": { "plz": "82194", "Jahr": "2021", "Ort": "Gröbenzell", "Land": "DE", "color": "#5681c7" }, "geometry": { "type": "Point", "coordinates": [ 1266296.580257805297151, 6139119.789011192508042 ] } },
{ "type": "Feature", "properties": { "plz": "83471", "Jahr": "2021", "Ort": "Berchtesgaden", "Land": "DE", "color": "#5681c7" }, "geometry": { "type": "Point", "coordinates": [ 1447385.810696074739099, 6037252.285977564752102 ] } },
{ "type": "Feature", "properties": { "plz": "84169", "Jahr": "2021", "Ort": "Altfraunhofen", "Land": "DE", "color": "#5681c7" }, "geometry": { "type": "Point", "coordinates": [ 1356942.828977908473462, 6181373.522213474847376 ] } },
{ "type": "Feature", "properties": { "plz": "84381", "Jahr": "2021", "Ort": "Johanniskirchen", "Land": "DE", "color": "#5681c7" }, "geometry": { "type": "Point", "coordinates": [ 1442923.028588576475158, 6197865.597815778106451 ] } },
{ "type": "Feature", "properties": { "plz": "88250", "Jahr": "2021", "Ort": "Weingarten", "Land": "DE", "color": "#5681c7" }, "geometry": { "type": "Point", "coordinates": [ 1072873.36821470502764, 6074927.861954472027719 ] } },
{ "type": "Feature", "properties": { "plz": "89231", "Jahr": "2021", "Ort": "Neu-Ulm", "Land": "DE", "color": "#5681c7" }, "geometry": { "type": "Point", "coordinates": [ 1114282.61147800879553, 6170214.936025957576931 ] } },
{ "type": "Feature", "properties": { "plz": "90402", "Jahr": "2021", "Ort": "Nürnberg", "Land": "DE", "color": "#5681c7" }, "geometry": { "type": "Point", "coordinates": [ 1234572.829690950457007, 6351604.741728969849646 ] } },
{ "type": "Feature", "properties": { "plz": "91052", "Jahr": "2021", "Ort": "Erlangen", "Land": "DE", "color": "#5681c7" }, "geometry": { "type": "Point", "coordinates": [ 1225863.309990122914314, 6375166.079686026088893 ] } },
{ "type": "Feature", "properties": { "plz": "93047", "Jahr": "2021", "Ort": "Regensburg", "Land": "DO", "color": "#5681c7" }, "geometry": { "type": "Point", "coordinates": [ 1346544.715033215237781, 6277794.704149381257594 ] } },
{ "type": "Feature", "properties": { "plz": "96052", "Jahr": "2021", "Ort": "Bamberg", "Land": "DE", "color": "#5681c7" }, "geometry": { "type": "Point", "coordinates": [ 1212913.860285242088139, 6430969.101464431732893 ] } },
{ "type": "Feature", "properties": { "plz": "97074", "Jahr": "2021", "Ort": "Würzburg", "Land": "DE", "color": "#5681c7" }, "geometry": { "type": "Point", "coordinates": [ 1109056.179696937790141, 6408811.077234632335603 ] } },
{ "type": "Feature", "properties": { "plz": "97688", "Jahr": "2021", "Ort": "Bad Kissingen", "Land": "DE", "color": "#5681c7" }, "geometry": { "type": "Point", "coordinates": [ 1119758.82095162756741, 6481446.34531167615205 ] } },
{ "type": "Feature", "properties": { "plz": "97980", "Jahr": "2021", "Ort": "Bad Mergentheim", "Land": "DE", "color": "#5681c7" }, "geometry": { "type": "Point", "coordinates": [ 1088004.231057883705944, 6352370.066958864219487 ] } },
{ "type": "Feature", "properties": { "plz": "98693", "Jahr": "2021", "Ort": "Ilmenau", "Land": "DE", "color": "#5681c7" }, "geometry": { "type": "Point", "coordinates": [ 1216735.306069836718962, 6566146.400781912729144 ] } },
{ "type": "Feature", "properties": { "plz": "99086", "Jahr": "2021", "Ort": "Erfurt", "Land": "DE", "color": "#5681c7" }, "geometry": { "type": "Point", "coordinates": [ 1228086.881874690996483, 6621414.564479261636734 ] } },
{ "type": "Feature", "properties": { "plz": "6340", "Jahr": null, "Ort": "Baar", "Land": "CH", "color": "#5681c7" }, "geometry": { "type": "Point", "coordinates": [ 950211.036661090794951, 5974717.957893245853484 ] } },
{ "type": "Feature", "properties": { "plz": "9100", "Jahr": null, "Ort": "Herisau", "Land": "CH", "color": "#5681c7" }, "geometry": { "type": "Point", "coordinates": [ 1033201.688122970517725, 6004866.199056341312826 ] } },
{ "type": "Feature", "properties": { "plz": "8302", "Jahr": null, "Ort": "Kloten", "Land": "CH", "color": "#5681c7" }, "geometry": { "type": "Point", "coordinates": [ 955671.322166600381024, 6017151.076357306912541 ] } },
{ "type": "Feature", "properties": { "plz": "8400", "Jahr": null, "Ort": "Winterthur", "Land": "CH", "color": "#5681c7" }, "geometry": { "type": "Point", "coordinates": [ 971784.671967367874458, 6022927.19715163204819 ] } },
{ "type": "Feature", "properties": { "plz": "8610", "Jahr": null, "Ort": "Uster", "Land": "CH", "color": "#5681c7" }, "geometry": { "type": "Point", "coordinates": [ 970815.288116740295663, 5999025.953613230958581 ] } },
{ "type": "Feature", "properties": { "plz": "5000", "Jahr": null, "Ort": "Aarau", "Land": "CH", "color": "#5681c7" }, "geometry": { "type": "Point", "coordinates": [ 895931.221249360358343, 6005744.657060499303043 ] } },
{ "type": "Feature", "properties": { "plz": "3110", "Jahr": null, "Ort": "Münsingen", "Land": "CH", "color": "#5681c7" }, "geometry": { "type": "Point", "coordinates": [ 841655.283668972901069, 5921868.506423467770219 ] } },
{ "type": "Feature", "properties": { "plz": "9000", "Jahr": null, "Ort": "St. Gallen", "Land": "CH", "color": "#5681c7" }, "geometry": { "type": "Point", "coordinates": [ 1042900.551762864226475, 6011556.775325864553452 ] } },
{ "type": "Feature", "properties": { "plz": "8048", "Jahr": null, "Ort": "Zürich", "Land": "CH", "color": "#5681c7" }, "geometry": { "type": "Point", "coordinates": [ 950317.88824854278937, 6004048.609535193070769 ] } },
{ "type": "Feature", "properties": { "plz": "8800", "Jahr": null, "Ort": "Thalwil", "Land": "CH", "color": "#5681c7" }, "geometry": { "type": "Point", "coordinates": [ 953745.108455031295307, 5989813.257924383506179 ] } },
{ "type": "Feature", "properties": { "plz": "3380", "Jahr": null, "Ort": "Wangen an der Aare", "Land": "CH", "color": "#5681c7" }, "geometry": { "type": "Point", "coordinates": [ 851760.062034670030698, 5979946.437032051384449 ] } },
{ "type": "Feature", "properties": { "plz": "3008", "Jahr": null, "Ort": "Bern", "Land": "CH", "color": "#5681c7" }, "geometry": { "type": "Point", "coordinates": [ 825503.478651180979796, 5932934.376817458309233 ] } },
{ "type": "Feature", "properties": { "plz": "4057", "Jahr": null, "Ort": "Basel", "Land": "CH", "color": "#5681c7" }, "geometry": { "type": "Point", "coordinates": [ 845435.68634420062881, 6036721.09436022862792 ] } },
{ "type": "Feature", "properties": { "plz": "1015", "Jahr": null, "Ort": "Lausanne", "Land": "CH", "color": "#5681c7" }, "geometry": { "type": "Point", "coordinates": [ 732054.991008302778937, 5863951.468772400170565 ] } },
{ "type": "Feature", "properties": { "plz": null, "Jahr": null, "Ort": "Salzburg", "Land": "AT", "color": "#5681c7" }, "geometry": { "type": "Point", "coordinates": [ 1449619.563953455304727, 6073079.299762381240726 ] } },
{ "type": "Feature", "properties": { "plz": "6850", "Jahr": null, "Ort": "Dornbirn", "Land": "DE", "color": "#5681c7" }, "geometry": { "type": "Point", "coordinates": [ 1085540.05956491199322, 6004494.359573033638299 ] } },
{ "type": "Feature", "properties": { "plz": null, "Jahr": null, "Ort": "Wien", "Land": "AT", "color": "#5681c7" }, "geometry": { "type": "Point", "coordinates": [ 1823651.1551424539648, 6143079.426215002313256 ] } },
{ "type": "Feature", "properties": { "plz": "6812", "Jahr": null, "Ort": "Arnhem", "Land": "NL", "color": "#5681c7" }, "geometry": { "type": "Point", "coordinates": [ 658044.838810061919503, 6797462.294322769157588 ] } },
{ "type": "Feature", "properties": { "plz": "5201", "Jahr": "2021", "Ort": "Brugg", "Land": "CH", "color": "#5681c7" }, "geometry": { "type": "Point", "coordinates": [ 913888.979568826500326, 6021063.680344762280583 ] } },
{ "type": "Feature", "properties": { "plz": "9126", "Jahr": "2021", "Ort": "Chemnitz", "Land": "DE", "color": "#5681c7" }, "geometry": { "type": "Point", "coordinates": [ 1438881.279133648378775, 6591665.612464475445449 ] } },
{ "type": "Feature", "properties": { "plz": "1099", "Jahr": "2021", "Ort": "Dresden", "Land": "DE", "color": "#5681c7" }, "geometry": { "type": "Point", "coordinates": [ 1528999.222325939685106, 6630046.958116120658815 ] } },
{ "type": "Feature", "properties": { "plz": "4362", "Jahr": "2021", "Ort": "Esch sur Alzette", "Land": "LU", "color": "#5681c7" }, "geometry": { "type": "Point", "coordinates": [ 666111.249376930180006, 6359563.049228915944695 ] } },
{ "type": "Feature", "properties": { "plz": "8510", "Jahr": null, "Ort": "Frauenfeld", "Land": "CH", "color": "#5681c7" }, "geometry": { "type": "Point", "coordinates": [ 990292.975696041248739, 6033247.327573414891958 ] } },
{ "type": "Feature", "properties": { "plz": "9661", "Jahr": null, "Ort": "Hainichen", "Land": "DE", "color": "#5681c7" }, "geometry": { "type": "Point", "coordinates": [ 1460792.556166622787714, 6616523.92245180439204 ] } },
{ "type": "Feature", "properties": { "plz": "6112", "Jahr": null, "Ort": "Halle (Saale)", "Land": "DE", "color": "#5681c7" }, "geometry": { "type": "Point", "coordinates": [ 1334005.398463398450986, 6707497.071466080844402 ] } },
{ "type": "Feature", "properties": { "plz": "810", "Jahr": null, "Ort": "Helsinki", "Land": "FI", "color": "#5681c7" }, "geometry": { "type": "Point", "coordinates": [ 2777050.157891312614083, 8439930.154989385977387 ] } },
{ "type": "Feature", "properties": { "plz": "2332", "Jahr": null, "Ort": "Hennersdorf", "Land": "AT", "color": "#5681c7" }, "geometry": { "type": "Point", "coordinates": [ 1821229.007602845784277, 6125403.452263293787837 ] } },
{ "type": "Feature", "properties": { "plz": "7743", "Jahr": null, "Ort": "Jena", "Land": "DE", "color": "#5681c7" }, "geometry": { "type": "Point", "coordinates": [ 1290142.51606003055349, 6608382.266331450082362 ] } },
{ "type": "Feature", "properties": { "plz": "1979", "Jahr": null, "Ort": "Lauchhammer", "Land": "DE", "color": "#5681c7" }, "geometry": { "type": "Point", "coordinates": [ 1532026.248319310834631, 6709607.871200975030661 ] } },
{ "type": "Feature", "properties": { "plz": "4177", "Jahr": null, "Ort": "Leipzig", "Land": "DE", "color": "#5681c7" }, "geometry": { "type": "Point", "coordinates": [ 1378100.236881587188691, 6682469.017466471530497 ] } },
{ "type": "Feature", "properties": { "plz": "6000", "Jahr": null, "Ort": "Luzern", "Land": "CH", "color": "#5681c7" }, "geometry": { "type": "Point", "coordinates": [ 924533.445493213948794, 5950299.856672049500048 ] } },
{ "type": "Feature", "properties": { "plz": "4600", "Jahr": null, "Ort": "Olten", "Land": "CH", "color": "#5681c7" }, "geometry": { "type": "Point", "coordinates": [ 879986.292846115073189, 5999288.96700304094702 ] } },
{ "type": "Feature", "properties": { "plz": "4043", "Jahr": null, "Ort": "Opheusden", "Land": "NL", "color": "#5681c7" }, "geometry": { "type": "Point", "coordinates": [ 627305.008096741279587, 6787394.320772451348603 ] } },
{ "type": "Feature", "properties": { "plz": "19362", "Jahr": null, "Ort": "Parchim", "Land": "DE", "color": "#5681c7" }, "geometry": { "type": "Point", "coordinates": [ 1318661.508082735817879, 7062169.415933886542916 ] } },
{ "type": "Feature", "properties": { "plz": "1796", "Jahr": null, "Ort": "Pirna", "Land": "DE", "color": "#5681c7" }, "geometry": { "type": "Point", "coordinates": [ 1551638.129372744355351, 6614749.458938373252749 ] } },
{ "type": "Feature", "properties": { "plz": "6431", "Jahr": null, "Ort": "Schwyz", "Land": "CH", "color": "#5681c7" }, "geometry": { "type": "Point", "coordinates": [ 963420.871378586627543, 5945486.769364438019693 ] } },
{ "type": "Feature", "properties": { "plz": "1968", "Jahr": null, "Ort": "Senftenberg", "Land": "DE", "color": "#5681c7" }, "geometry": { "type": "Point", "coordinates": [ 1559008.531743955798447, 6714368.768405543640256 ] } },
{ "type": "Feature", "properties": { "plz": "9490", "Jahr": null, "Ort": "Vaduz", "Land": "LI", "color": "#5681c7" }, "geometry": { "type": "Point", "coordinates": [ 1060001.557051199488342, 5964733.319694512523711 ] } },
{ "type": "Feature", "properties": { "plz": null, "Jahr": null, "Ort": "Wabern", "Land": "CH", "color": "#5681c7" }, "geometry": { "type": "Point", "coordinates": [ 828857.388278211001307, 5930322.644895242527127 ] } },
{ "type": "Feature", "properties": { "plz": "3683", "Jahr": null, "Ort": "Yspertal", "Land": "AT", "color": "#5681c7" }, "geometry": { "type": "Point", "coordinates": [ 1676894.377378325909376, 6154734.290337932296097 ] } },
{ "type": "Feature", "properties": { "plz": "6301", "Jahr": null, "Ort": "Zug", "Land": "CH", "color": "#5681c7" }, "geometry": { "type": "Point", "coordinates": [ 948146.567802271456458, 5969482.619098045863211 ] } },
{ "type": "Feature", "properties": { "plz": "3044", "Jahr": null, "Ort": "Cottbus", "Land": "DE", "color": "#5681c7" }, "geometry": { "type": "Point", "coordinates": [ 1594958.230297627858818, 6756271.464933685958385 ] } },
{ "type": "Feature", "properties": { "plz": "6406", "Jahr": null, "Ort": "Bernburg", "Land": "DE", "color": "#5681c7" }, "geometry": { "type": "Point", "coordinates": [ 1305848.25341990031302, 6764668.272670342586935 ] } },
{ "type": "Feature", "properties": { "plz": "6366", "Jahr": null, "Ort": "Köthen", "Land": "DE", "color": "#5681c7" }, "geometry": { "type": "Point", "coordinates": [ 1332105.674298075493425, 6754833.337641768157482 ] } }
]
}
