{
"type": "FeatureCollection",
"name": "points20192",
"crs": { "type": "name", "properties": { "name": "urn:ogc:def:crs:EPSG::3857" } },
"features": [
{ "type": "Feature", "properties": { "plz": "24161", "Jahr": "2019", "Ort": "Altenholz", "Land": "DE" }, "geometry": { "type": "Point", "coordinates": [ 1126384.037546245614067, 7245409.474770644679666 ] } },
{ "type": "Feature", "properties": { "plz": "71522", "Jahr": "2019", "Ort": "Backnang", "Land": "DE" }, "geometry": { "type": "Point", "coordinates": [ 1049754.768152185250074, 6265804.321367606520653 ] } },
{ "type": "Feature", "properties": { "plz": "36251", "Jahr": "2019", "Ort": "Bad Hersfeld", "Land": "DE" }, "geometry": { "type": "Point", "coordinates": [ 1080697.886555331526324, 6598014.537972323596478 ] } },
{ "type": "Feature", "properties": { "plz": "32105", "Jahr": "2019", "Ort": "Bad Salzuflen", "Land": "DE" }, "geometry": { "type": "Point", "coordinates": [ 974400.065767912543379, 6815640.897932425141335 ] } },
{ "type": "Feature", "properties": { "plz": "2625", "Jahr": "2019", "Ort": "Bautzen", "Land": "DE" }, "geometry": { "type": "Point", "coordinates": [ 1605983.769719248637557, 6653444.30168071296066 ] } },
{ "type": "Feature", "properties": { "plz": "95448", "Jahr": "2019", "Ort": "Bayreuth", "Land": "DE" }, "geometry": { "type": "Point", "coordinates": [ 1288588.44299713592045, 6436336.243592089042068 ] } },
{ "type": "Feature", "properties": { "plz": "4874", "Jahr": "2019", "Ort": "Belgern-Schildau", "Land": "DE" }, "geometry": { "type": "Point", "coordinates": [ 1460910.290340287843719, 6707035.735138949006796 ] } },
{ "type": "Feature", "properties": { "plz": "12053", "Jahr": "2019", "Ort": "Berlin Neukölln", "Land": "DE" }, "geometry": { "type": "Point", "coordinates": [ 1495512.204707984114066, 6887546.987210894934833 ] } },
{ "type": "Feature", "properties": { "plz": "53225", "Jahr": "2019", "Ort": "Bonn-Beuel", "Land": "DE" }, "geometry": { "type": "Point", "coordinates": [ 792503.715052550425753, 6574935.630005327984691 ] } },
{ "type": "Feature", "properties": { "plz": "14770", "Jahr": "2019", "Ort": "Brandenburg an der Havel", "Land": "DE" }, "geometry": { "type": "Point", "coordinates": [ 1396996.120402583386749, 6874767.062765807844698 ] } },
{ "type": "Feature", "properties": { "plz": "51399", "Jahr": "2019", "Ort": "Burscheid", "Land": "DE" }, "geometry": { "type": "Point", "coordinates": [ 800411.800512676476501, 6236088.706240733154118 ] } },
{ "type": "Feature", "properties": { "plz": "67125", "Jahr": "2019", "Ort": "Dannstadt-Schauernheim", "Land": "DE" }, "geometry": { "type": "Point", "coordinates": [ 924692.376197368837893, 6348860.742821648716927 ] } },
{ "type": "Feature", "properties": { "plz": "1796", "Jahr": "2019", "Ort": "Dohma", "Land": "DE" }, "geometry": { "type": "Point", "coordinates": [ 1550427.447557070991024, 6607383.335311418399215 ] } },
{ "type": "Feature", "properties": { "plz": "1809", "Jahr": "2019", "Ort": "Dohna", "Land": "DE" }, "geometry": { "type": "Point", "coordinates": [ 1542745.072526657488197, 6613330.25933484826237 ] } },
{ "type": "Feature", "properties": { "plz": "8840", "Jahr": "2019", "Ort": "Einsiedeln", "Land": "CH" }, "geometry": { "type": "Point", "coordinates": [ 973790.352896103053354, 5963041.789880216121674 ] } },
{ "type": "Feature", "properties": { "plz": "5061", "Jahr": "2019", "Ort": "Elsbethen", "Land": "AT" }, "geometry": { "type": "Point", "coordinates": [ 1353808.535226538777351, 6014218.133779517374933 ] } },
{ "type": "Feature", "properties": { "plz": "26723", "Jahr": "2019", "Ort": "Emden", "Land": "DE" }, "geometry": { "type": "Point", "coordinates": [ 802143.083132281550206, 7051191.645559615455568 ] } },
{ "type": "Feature", "properties": { "plz": "73728", "Jahr": "2019", "Ort": "Esslingen\/Neckar", "Land": "DE" }, "geometry": { "type": "Point", "coordinates": [ 1036087.299346773186699, 6231282.002764049917459 ] } },
{ "type": "Feature", "properties": { "plz": "91301", "Jahr": "2019", "Ort": "Forchheim", "Land": "DE" }, "geometry": { "type": "Point", "coordinates": [ 1231104.822761190822348, 6397683.641532860696316 ] } },
{ "type": "Feature", "properties": { "plz": "9599", "Jahr": "2019", "Ort": "Freiberg", "Land": "DE" }, "geometry": { "type": "Point", "coordinates": [ 1485104.159571761032566, 6606604.365155596286058 ] } },
{ "type": "Feature", "properties": { "plz": "37133", "Jahr": "2019", "Ort": "Friedland", "Land": "DE" }, "geometry": { "type": "Point", "coordinates": [ 849186.864175480674021, 6500793.162765356712043 ] } },
{ "type": "Feature", "properties": { "plz": "82538", "Jahr": "2019", "Ort": "Geretsried", "Land": "DE" }, "geometry": { "type": "Point", "coordinates": [ 1277855.4232618866954, 6084364.238532787188888 ] } },
{ "type": "Feature", "properties": { "plz": "24214", "Jahr": "2019", "Ort": "Gettorf", "Land": "DE" }, "geometry": { "type": "Point", "coordinates": [ 1110842.818828526651487, 7248153.097136995755136 ] } },
{ "type": "Feature", "properties": { "plz": "2230", "Jahr": "2019", "Ort": "Gänserndorf", "Land": "AT" }, "geometry": { "type": "Point", "coordinates": [ 1860983.292041430715472, 6163683.463279141113162 ] } },
{ "type": "Feature", "properties": { "plz": "71083", "Jahr": "2019", "Ort": "Herrenberg", "Land": "DE" }, "geometry": { "type": "Point", "coordinates": [ 987020.398041088599712, 6206443.175155710428953 ] } },
{ "type": "Feature", "properties": { "plz": "65510", "Jahr": "2019", "Ort": "Hünstetten", "Land": "DE" }, "geometry": { "type": "Point", "coordinates": [ 912027.669939206563868, 6489698.967170624062419 ] } },
{ "type": "Feature", "properties": { "plz": "42564", "Jahr": "2019", "Ort": "Kaarst", "Land": "DE" }, "geometry": { "type": "Point", "coordinates": [ 736801.880463461740874, 6661541.224656262435019 ] } },
{ "type": "Feature", "properties": { "plz": "1723", "Jahr": "2019", "Ort": "Kesselsdorf", "Land": "DE" }, "geometry": { "type": "Point", "coordinates": [ 1513265.842463657725602, 6626978.268624044023454 ] } },
{ "type": "Feature", "properties": { "plz": "74366", "Jahr": "2019", "Ort": "Kirchheim", "Land": "DE" }, "geometry": { "type": "Point", "coordinates": [ 1097425.079049227293581, 6386884.948506497777998 ] } },
{ "type": "Feature", "properties": { "plz": "1737", "Jahr": "2019", "Ort": "Kurort Hartha", "Land": "DE" }, "geometry": { "type": "Point", "coordinates": [ 1508017.383411640301347, 6618039.149621394462883 ] } },
{ "type": "Feature", "properties": { "plz": "15711", "Jahr": "2019", "Ort": "Königs Wusterhausen", "Land": "DE" }, "geometry": { "type": "Point", "coordinates": [ 1513903.794612570665777, 6857164.46107077319175 ] } },
{ "type": "Feature", "properties": { "plz": "76829", "Jahr": "2019", "Ort": "Landau", "Land": "DE" }, "geometry": { "type": "Point", "coordinates": [ 1011160.12139055156149, 6682101.336794076487422 ] } },
{ "type": "Feature", "properties": { "plz": "63225", "Jahr": "2019", "Ort": "Langen", "Land": "DE" }, "geometry": { "type": "Point", "coordinates": [ 964743.105540916556492, 6444970.460897333920002 ] } },
{ "type": "Feature", "properties": { "plz": "38542", "Jahr": "2019", "Ort": "Leiferde", "Land": "DE" }, "geometry": { "type": "Point", "coordinates": [ 1160990.486493173986673, 6882686.767033993266523 ] } },
{ "type": "Feature", "properties": { "plz": "67117", "Jahr": "2019", "Ort": "Limburgerhof", "Land": "DE" }, "geometry": { "type": "Point", "coordinates": [ 934382.952654652763158, 6346851.22166695818305 ] } },
{ "type": "Feature", "properties": { "plz": "82216", "Jahr": "2019", "Ort": "Maisach", "Land": "DE" }, "geometry": { "type": "Point", "coordinates": [ 1253210.89063697680831, 6142899.327447287738323 ] } },
{ "type": "Feature", "properties": { "plz": "21130", "Jahr": "2019", "Ort": "Malmö", "Land": "SE" }, "geometry": { "type": "Point", "coordinates": [ 1447176.52787482435815, 7480194.899687214754522 ] } },
{ "type": "Feature", "properties": { "plz": "4416", "Jahr": "2019", "Ort": "Markkleeberg", "Land": "DE" }, "geometry": { "type": "Point", "coordinates": [ 1379854.640581284416839, 6670122.022857584059238 ] } },
{ "type": "Feature", "properties": { "plz": "1662", "Jahr": "2019", "Ort": "Meißen", "Land": "DE" }, "geometry": { "type": "Point", "coordinates": [ 1499309.32880658027716, 6650429.958745862357318 ] } },
{ "type": "Feature", "properties": { "plz": "66589", "Jahr": "2019", "Ort": "Merchweiler", "Land": "DE" }, "geometry": { "type": "Point", "coordinates": [ 786532.582761167199351, 6335482.794566764496267 ] } },
{ "type": "Feature", "properties": { "plz": "2340", "Jahr": "2019", "Ort": "Mödling", "Land": "AT" }, "geometry": { "type": "Point", "coordinates": [ 1817183.857698808191344, 6126832.568466757424176 ] } },
{ "type": "Feature", "properties": { "plz": "23879", "Jahr": "2019", "Ort": "Mölln", "Land": "DE" }, "geometry": { "type": "Point", "coordinates": [ 1456329.215408662566915, 7092978.584841464646161 ] } },
{ "type": "Feature", "properties": { "plz": "41061", "Jahr": "2019", "Ort": "Mönchengladbach", "Land": "DE" }, "geometry": { "type": "Point", "coordinates": [ 716273.691129578161053, 6655876.500314770266414 ] } },
{ "type": "Feature", "properties": { "plz": "1844", "Jahr": "2019", "Ort": "Neustadt in Sachsen", "Land": "DE" }, "geometry": { "type": "Point", "coordinates": [ 1582256.142949709668756, 6625711.349853099323809 ] } },
{ "type": "Feature", "properties": { "plz": "1458", "Jahr": "2019", "Ort": "Ottendorf-Okrilla", "Land": "DE" }, "geometry": { "type": "Point", "coordinates": [ 1539548.59783053654246, 6653922.708486597053707 ] } },
{ "type": "Feature", "properties": { "plz": "33102", "Jahr": "2019", "Ort": "Paderborn", "Land": "DE" }, "geometry": { "type": "Point", "coordinates": [ 974453.869965521036647, 6749127.801891820505261 ] } },
{ "type": "Feature", "properties": { "plz": "94032", "Jahr": "2019", "Ort": "Passau", "Land": "DE" }, "geometry": { "type": "Point", "coordinates": [ 1498496.683824810897931, 6202912.681615449488163 ] } },
{ "type": "Feature", "properties": { "plz": "85276", "Jahr": "2019", "Ort": "Pfaffenhofen", "Land": "DE" }, "geometry": { "type": "Point", "coordinates": [ 1239813.734257485717535, 6137181.010964528657496 ] } },
{ "type": "Feature", "properties": { "plz": "1445", "Jahr": "2019", "Ort": "Radebeul", "Land": "DE" }, "geometry": { "type": "Point", "coordinates": [ 1522307.368522551143542, 6638973.511382927186787 ] } },
{ "type": "Feature", "properties": { "plz": "8468", "Jahr": "2019", "Ort": "Reichenbach im Vogtland", "Land": "DE" }, "geometry": { "type": "Point", "coordinates": [ 1368943.568895188393071, 6554362.983468181453645 ] } },
{ "type": "Feature", "properties": { "plz": "72768", "Jahr": "2019", "Ort": "Reutlingen", "Land": "DE" }, "geometry": { "type": "Point", "coordinates": [ 1025636.366306227515452, 6188990.777165645733476 ] } },
{ "type": "Feature", "properties": { "plz": "77866", "Jahr": "2019", "Ort": "Rheinau", "Land": "DE" }, "geometry": { "type": "Point", "coordinates": [ 883645.502390491310507, 6217685.254643030464649 ] } },
{ "type": "Feature", "properties": { "plz": "65824", "Jahr": "2019", "Ort": "Schwalbach am Taunus", "Land": "DE" }, "geometry": { "type": "Point", "coordinates": [ 950219.699310815543868, 6472072.834088502451777 ] } },
{ "type": "Feature", "properties": { "plz": "69198", "Jahr": "2019", "Ort": "Schriesheim", "Land": "DE" }, "geometry": { "type": "Point", "coordinates": [ 963965.153846223140135, 6355871.769119903445244 ] } },
{ "type": "Feature", "properties": { "plz": "9306", "Jahr": "2019", "Ort": "Seelitz", "Land": "DE" }, "geometry": { "type": "Point", "coordinates": [ 1427213.837247766554356, 6626850.277898135595024 ] } },
{ "type": "Feature", "properties": { "plz": "30926", "Jahr": "2019", "Ort": "Seelze", "Land": "DE" }, "geometry": { "type": "Point", "coordinates": [ 1068043.874248447362334, 6872121.138373034074903 ] } },
{ "type": "Feature", "properties": { "plz": "2011", "Jahr": "2019", "Ort": "Sierndorf", "Land": "AT" }, "geometry": { "type": "Point", "coordinates": [ 1799667.11200599744916, 6178390.672543908469379 ] } },
{ "type": "Feature", "properties": { "plz": "71063", "Jahr": "2019", "Ort": "Sindelfingen", "Land": "DE" }, "geometry": { "type": "Point", "coordinates": [ 1002272.024857650743797, 6225541.935061682015657 ] } },
{ "type": "Feature", "properties": { "plz": "53489", "Jahr": "2019", "Ort": "Sinzig", "Land": "DE" }, "geometry": { "type": "Point", "coordinates": [ 806973.017867893911898, 6541229.421416747383773 ] } },
{ "type": "Feature", "properties": { "plz": "4501", "Jahr": "2019", "Ort": "Solothurn", "Land": "CH" }, "geometry": { "type": "Point", "coordinates": [ 838414.16324704780709, 5976844.565558323636651 ] } },
{ "type": "Feature", "properties": { "plz": "9356", "Jahr": "2019", "Ort": "St. Egidien", "Land": "DE" }, "geometry": { "type": "Point", "coordinates": [ 1403969.596128090983257, 6583876.516324409283698 ] } },
{ "type": "Feature", "properties": { "plz": "3109", "Jahr": "2019", "Ort": "St. Pölten", "Land": "AT" }, "geometry": { "type": "Point", "coordinates": [ 1731903.374899039510638, 6136294.971948329359293 ] } },
{ "type": "Feature", "properties": { "plz": "78256", "Jahr": "2019", "Ort": "Steisslingen", "Land": "DE" }, "geometry": { "type": "Point", "coordinates": [ 993825.885942210792564, 6073565.878363391384482 ] } },
{ "type": "Feature", "properties": { "plz": "94169", "Jahr": "2019", "Ort": "Thurmansbang", "Land": "DE" }, "geometry": { "type": "Point", "coordinates": [ 1482358.59931158227846, 6235250.369012429378927 ] } },
{ "type": "Feature", "properties": { "plz": "4860", "Jahr": "2019", "Ort": "Torgau", "Land": "DE" }, "geometry": { "type": "Point", "coordinates": [ 1446114.98008518689312, 6721445.953369488939643 ] } },
{ "type": "Feature", "properties": { "plz": "91757", "Jahr": "2019", "Ort": "Treuchtlingen", "Land": "DE" }, "geometry": { "type": "Point", "coordinates": [ 1214224.999946325318888, 6267475.52330007404089 ] } },
{ "type": "Feature", "properties": { "plz": "6314", "Jahr": "2019", "Ort": "Unterageri", "Land": "CH" }, "geometry": { "type": "Point", "coordinates": [ 955597.081496539991349, 5964502.88659571763128 ] } },
{ "type": "Feature", "properties": { "plz": "82008", "Jahr": "2019", "Ort": "Unterhaching", "Land": "DE" }, "geometry": { "type": "Point", "coordinates": [ 1292570.893734517274424, 6117961.522960813716054 ] } },
{ "type": "Feature", "properties": { "plz": "1090", "Jahr": "2019", "Ort": "WIEN", "Land": "AT" }, "geometry": { "type": "Point", "coordinates": [ 1822641.793729809811339, 6141545.64226527325809 ] } },
{ "type": "Feature", "properties": { "plz": "1686", "Jahr": "2019", "Ort": "Weinböhla", "Land": "DE" }, "geometry": { "type": "Point", "coordinates": [ 1509872.444828520528972, 6649947.633579824119806 ] } },
{ "type": "Feature", "properties": { "plz": "26382", "Jahr": "2019", "Ort": "Wilhelmshaven", "Land": "DE" }, "geometry": { "type": "Point", "coordinates": [ 902364.632118366542272, 7081214.964410159736872 ] } },
{ "type": "Feature", "properties": { "plz": "6712", "Jahr": "2019", "Ort": "Zeitz", "Land": "DE" }, "geometry": { "type": "Point", "coordinates": [ 1350496.774288439424708, 6631262.127289842814207 ] } },
{ "type": "Feature", "properties": { "plz": "15806", "Jahr": "2019", "Ort": "Zossen OT Kallinchen", "Land": "DE" }, "geometry": { "type": "Point", "coordinates": [ 1497170.014751335605979, 6839210.015203539282084 ] } },
{ "type": "Feature", "properties": { "plz": "22049", "Jahr": "2019", "Ort": "Hamburg", "Land": "DE" }, "geometry": { "type": "Point", "coordinates": [ 1113522.08780445321463, 7085220.447256739251316 ] } }
]
}
