{
"type": "FeatureCollection",
"name": "points2020",
"crs": { "type": "name", "properties": { "name": "urn:ogc:def:crs:EPSG::3857" } },
"features": [
{ "type": "Feature", "properties": { "plz": "73773", "Jahr": "2020", "Ort": "Aichwald", "Land": "DE" }, "geometry": { "type": "Point", "coordinates": [ 1044576.473319366574287, 6234261.184333837591112 ] } },
{ "type": "Feature", "properties": { "plz": "59823", "Jahr": "2020", "Ort": "Arnsberg", "Land": "DE" }, "geometry": { "type": "Point", "coordinates": [ 896926.34450690029189, 6692350.386017321608961 ] } },
{ "type": "Feature", "properties": { "plz": "79280", "Jahr": "2020", "Ort": "Au", "Land": "DE" }, "geometry": { "type": "Point", "coordinates": [ 1073166.805868497584015, 6012385.542548507452011 ] } },
{ "type": "Feature", "properties": { "plz": "77740", "Jahr": "2020", "Ort": "Bad Peterstal-Griesbach", "Land": "DE" }, "geometry": { "type": "Point", "coordinates": [ 916579.312009260756895, 6182102.848745805211365 ] } },
{ "type": "Feature", "properties": { "plz": "76532", "Jahr": "2020", "Ort": "Baden-Baden", "Land": "DE" }, "geometry": { "type": "Point", "coordinates": [ 917326.392596713034436, 6233838.463192098774016 ] } },
{ "type": "Feature", "properties": { "plz": "64625", "Jahr": "2020", "Ort": "Bensheim", "Land": "DE" }, "geometry": { "type": "Point", "coordinates": [ 959740.940125527675264, 6391192.337257119826972 ] } },
{ "type": "Feature", "properties": { "plz": "49565", "Jahr": "2020", "Ort": "Bramsche-Kalkriese", "Land": "DE" }, "geometry": { "type": "Point", "coordinates": [ 901186.173597023705952, 6873742.838088638149202 ] } },
{ "type": "Feature", "properties": { "plz": "56332", "Jahr": "2020", "Ort": "Brodenbach", "Land": "DE" }, "geometry": { "type": "Point", "coordinates": [ 828477.951157404226251, 6485307.698525883257389 ] } },
{ "type": "Feature", "properties": { "plz": "55257", "Jahr": "2020", "Ort": "Budenheim", "Land": "DE" }, "geometry": { "type": "Point", "coordinates": [ 909769.037885690690018, 6450411.242334178648889 ] } },
{ "type": "Feature", "properties": { "plz": "32257", "Jahr": "2020", "Ort": "Bünde", "Land": "DE" }, "geometry": { "type": "Point", "coordinates": [ 955362.905151624348946, 6836524.530457229353487 ] } },
{ "type": "Feature", "properties": { "plz": "6330", "Jahr": "2020", "Ort": "Cham", "Land": "CH" }, "geometry": { "type": "Point", "coordinates": [ 941868.975007165921852, 5971713.892759538255632 ] } },
{ "type": "Feature", "properties": { "plz": "65760", "Jahr": "2020", "Ort": "Eschborn", "Land": "DE" }, "geometry": { "type": "Point", "coordinates": [ 954112.406602669972926, 6471021.545153934508562 ] } },
{ "type": "Feature", "properties": { "plz": "55270", "Jahr": "2020", "Ort": "Essenheim", "Land": "DE" }, "geometry": { "type": "Point", "coordinates": [ 907925.690554387983866, 6434339.806430835276842 ] } },
{ "type": "Feature", "properties": { "plz": "6800", "Jahr": "2020", "Ort": "Feldkirch", "Land": "AT" }, "geometry": { "type": "Point", "coordinates": [ 1068626.202757437247783, 5980919.846482777968049 ] } },
{ "type": "Feature", "properties": { "plz": "70794", "Jahr": "2020", "Ort": "Filderstadt", "Land": "DE" }, "geometry": { "type": "Point", "coordinates": [ 1026137.62030077946838, 6220162.37233140040189 ] } },
{ "type": "Feature", "properties": { "plz": "60433", "Jahr": "2020", "Ort": "Frankfurt (Main)", "Land": "DE" }, "geometry": { "type": "Point", "coordinates": [ 966496.109791632159613, 6465806.300054026767612 ] } },
{ "type": "Feature", "properties": { "plz": "79106", "Jahr": "2020", "Ort": "Freiburg im Breisgau", "Land": "DE" }, "geometry": { "type": "Point", "coordinates": [ 873697.373139806790277, 6106279.897810944356024 ] } },
{ "type": "Feature", "properties": { "plz": "88045", "Jahr": "2020", "Ort": "Friedrichshafen", "Land": "DE" }, "geometry": { "type": "Point", "coordinates": [ 1055337.63606966403313, 6048834.041225881315768 ] } },
{ "type": "Feature", "properties": { "plz": "45891", "Jahr": "2020", "Ort": "Gelsenkirchen", "Land": "DE" }, "geometry": { "type": "Point", "coordinates": [ 789936.928665022714995, 6712094.893531452864408 ] } },
{ "type": "Feature", "properties": { "plz": "82110", "Jahr": "2020", "Ort": "Germering", "Land": "DE" }, "geometry": { "type": "Point", "coordinates": [ 1265179.965699864318594, 6129173.31238522939384 ] } },
{ "type": "Feature", "properties": { "plz": "35394", "Jahr": "2020", "Ort": "Gießen", "Land": "DE" }, "geometry": { "type": "Point", "coordinates": [ 981989.592961374903098, 6545185.819850751198828 ] } },
{ "type": "Feature", "properties": { "plz": "8010", "Jahr": "2020", "Ort": "Graz", "Land": "AT" }, "geometry": { "type": "Point", "coordinates": [ 1718432.451842829585075, 5953394.106567514128983 ] } },
{ "type": "Feature", "properties": { "plz": "79194", "Jahr": "2020", "Ort": "Gundelfingen", "Land": "DE" }, "geometry": { "type": "Point", "coordinates": [ 875860.943951970897615, 6114195.128180653788149 ] } },
{ "type": "Feature", "properties": { "plz": "37079", "Jahr": "2020", "Ort": "Göttingen", "Land": "DE" }, "geometry": { "type": "Point", "coordinates": [ 1105515.257084594806656, 6710493.777884521521628 ] } },
{ "type": "Feature", "properties": { "plz": "6108", "Jahr": "2020", "Ort": "Halle\/Saale", "Land": "DE" }, "geometry": { "type": "Point", "coordinates": [ 1332644.450521766440943, 6707012.8035733634606 ] } },
{ "type": "Feature", "properties": { "plz": "45721", "Jahr": "2020", "Ort": "Haltern am See", "Land": "DE" }, "geometry": { "type": "Point", "coordinates": [ 800132.627272378653288, 6753893.33728973288089 ] } },
{ "type": "Feature", "properties": { "plz": "8075", "Jahr": "2020", "Ort": "Hart bei Graz", "Land": "AT" }, "geometry": { "type": "Point", "coordinates": [ 1726949.733798982342705, 5949672.240628809668124 ] } },
{ "type": "Feature", "properties": { "plz": "69126", "Jahr": "2020", "Ort": "Heidelberg", "Land": "DE" }, "geometry": { "type": "Point", "coordinates": [ 967500.64334980759304, 6344633.24719362705946 ] } },
{ "type": "Feature", "properties": { "plz": "65719", "Jahr": "2020", "Ort": "Hofheim am Taunus", "Land": "DE" }, "geometry": { "type": "Point", "coordinates": [ 940061.118730691727251, 6460719.55806995742023 ] } },
{ "type": "Feature", "properties": { "plz": "87509", "Jahr": "2020", "Ort": "Immenstadt", "Land": "DE" }, "geometry": { "type": "Point", "coordinates": [ 1137707.098800383741036, 6034165.037061206996441 ] } },
{ "type": "Feature", "properties": { "plz": "58636", "Jahr": "2020", "Ort": "Iserlohn", "Land": "DE" }, "geometry": { "type": "Point", "coordinates": [ 857007.341154973953962, 6687781.87012885324657 ] } },
{ "type": "Feature", "properties": { "plz": "67655", "Jahr": "2020", "Ort": "Kaiserslautern", "Land": "DE" }, "geometry": { "type": "Point", "coordinates": [ 856256.925519209122285, 6351147.565277307294309 ] } },
{ "type": "Feature", "properties": { "plz": "59174", "Jahr": "2020", "Ort": "Kamen", "Land": "DE" }, "geometry": { "type": "Point", "coordinates": [ 852802.484687627409585, 6726579.175787601619959 ] } },
{ "type": "Feature", "properties": { "plz": "87435", "Jahr": "2020", "Ort": "Kempten", "Land": "DE" }, "geometry": { "type": "Point", "coordinates": [ 1148063.875362287973985, 6061276.757796350866556 ] } },
{ "type": "Feature", "properties": { "plz": "72138", "Jahr": "2020", "Ort": "Kirchentellinsfurt", "Land": "DE" }, "geometry": { "type": "Point", "coordinates": [ 1018540.924288601847365, 6196118.703599120490253 ] } },
{ "type": "Feature", "properties": { "plz": "70806", "Jahr": "2020", "Ort": "Kornwestheim", "Land": "DE" }, "geometry": { "type": "Point", "coordinates": [ 1022634.56035148492083, 6251347.560130031779408 ] } },
{ "type": "Feature", "properties": { "plz": "53639", "Jahr": "2020", "Ort": "Königswinter", "Land": "DE" }, "geometry": { "type": "Point", "coordinates": [ 800834.341569861397147, 6563813.154531606473029 ] } },
{ "type": "Feature", "properties": { "plz": "77933", "Jahr": "2020", "Ort": "Lahr", "Land": "DE" }, "geometry": { "type": "Point", "coordinates": [ 700346.98885724239517, 6436584.094748684205115 ] } },
{ "type": "Feature", "properties": { "plz": "51373", "Jahr": "2020", "Ort": "Leverkusen", "Land": "DE" }, "geometry": { "type": "Point", "coordinates": [ 777989.548719526850618, 6627067.171604823321104 ] } },
{ "type": "Feature", "properties": { "plz": "4410", "Jahr": "2020", "Ort": "Liestal", "Land": "CH" }, "geometry": { "type": "Point", "coordinates": [ 859586.171441531740129, 6022404.953274304978549 ] } },
{ "type": "Feature", "properties": { "plz": "6886", "Jahr": "2020", "Ort": "Lutherstadt Wittenberg", "Land": "DE" }, "geometry": { "type": "Point", "coordinates": [ 1407881.102923565078527, 6776100.721450079232454 ] } },
{ "type": "Feature", "properties": { "plz": "23562", "Jahr": "2020", "Ort": "Lübeck", "Land": "DE" }, "geometry": { "type": "Point", "coordinates": [ 1189397.644755006767809, 7144752.095212963409722 ] } },
{ "type": "Feature", "properties": { "plz": "88677", "Jahr": "2020", "Ort": "Markdorf", "Land": "DE" }, "geometry": { "type": "Point", "coordinates": [ 1045373.979716296773404, 6060494.006158131174743 ] } },
{ "type": "Feature", "properties": { "plz": "56727", "Jahr": "2020", "Ort": "Mayen", "Land": "DE" }, "geometry": { "type": "Point", "coordinates": [ 803841.744613936170936, 6503377.266096680425107 ] } },
{ "type": "Feature", "properties": { "plz": "56743", "Jahr": "2020", "Ort": "Mendig", "Land": "DE" }, "geometry": { "type": "Point", "coordinates": [ 810411.78079648304265, 6510959.432531866244972 ] } },
{ "type": "Feature", "properties": { "plz": "8932", "Jahr": "2020", "Ort": "Mettmenstetten", "Land": "CH" }, "geometry": { "type": "Point", "coordinates": [ 942419.194657059269957, 5983302.728751601651311 ] } },
{ "type": "Feature", "properties": { "plz": "74821", "Jahr": "2020", "Ort": "Mosbach", "Land": "DE" }, "geometry": { "type": "Point", "coordinates": [ 1018054.999809042783454, 6334811.803057827986777 ] } },
{ "type": "Feature", "properties": { "plz": "67112", "Jahr": "2020", "Ort": "Mutterstadt", "Land": "DE" }, "geometry": { "type": "Point", "coordinates": [ 930075.292337359278463, 6350256.167879907414317 ] } },
{ "type": "Feature", "properties": { "plz": "72116", "Jahr": "2020", "Ort": "Mössingen", "Land": "DE" }, "geometry": { "type": "Point", "coordinates": [ 1009020.055902110761963, 6174901.699965740554035 ] } },
{ "type": "Feature", "properties": { "plz": "63165", "Jahr": "2020", "Ort": "Mühlheim Main", "Land": "DE" }, "geometry": { "type": "Point", "coordinates": [ 982821.230104477144778, 6467468.152707264758646 ] } },
{ "type": "Feature", "properties": { "plz": "79379", "Jahr": "2020", "Ort": "Müllheim", "Land": "DE" }, "geometry": { "type": "Point", "coordinates": [ 848914.090455309138633, 6075285.279073467478156 ] } },
{ "type": "Feature", "properties": { "plz": "6618", "Jahr": "2020", "Ort": "Naumburg", "Land": "DE" }, "geometry": { "type": "Point", "coordinates": [ 1020199.792027080664411, 6665188.761331632733345 ] } },
{ "type": "Feature", "properties": { "plz": "34266", "Jahr": "2020", "Ort": "Niestetal", "Land": "DE" }, "geometry": { "type": "Point", "coordinates": [ 1063935.533028420992196, 6677009.099711004644632 ] } },
{ "type": "Feature", "properties": { "plz": "26506", "Jahr": "2020", "Ort": "Norden", "Land": "DE" }, "geometry": { "type": "Point", "coordinates": [ 802014.232376147992909, 7093755.352184507064521 ] } },
{ "type": "Feature", "properties": { "plz": "51588", "Jahr": "2020", "Ort": "Nümbrecht", "Land": "DE" }, "geometry": { "type": "Point", "coordinates": [ 839482.894568204530515, 6604180.218921733088791 ] } },
{ "type": "Feature", "properties": { "plz": "72622", "Jahr": "2020", "Ort": "Nürtingen", "Land": "DE" }, "geometry": { "type": "Point", "coordinates": [ 1039275.333906549960375, 6211635.827736467123032 ] } },
{ "type": "Feature", "properties": { "plz": "88179", "Jahr": "2020", "Ort": "Oberreute", "Land": "DE" }, "geometry": { "type": "Point", "coordinates": [ 1107002.699766058009118, 6034521.349945494905114 ] } },
{ "type": "Feature", "properties": { "plz": "3072", "Jahr": "2020", "Ort": "Ostermundigen", "Land": "CH" }, "geometry": { "type": "Point", "coordinates": [ 834735.188322106492706, 5935172.584047605283558 ] } },
{ "type": "Feature", "properties": { "plz": "75179", "Jahr": "2020", "Ort": "Pforzheim", "Land": "DE" }, "geometry": { "type": "Point", "coordinates": [ 968743.349126587854698, 6256207.665812656283379 ] } },
{ "type": "Feature", "properties": { "plz": "65428", "Jahr": "2020", "Ort": "Rüsselsheim", "Land": "DE" }, "geometry": { "type": "Point", "coordinates": [ 936540.098127601668239, 6444715.216765569522977 ] } },
{ "type": "Feature", "properties": { "plz": "79227", "Jahr": "2020", "Ort": "Schallstadt", "Land": "DE" }, "geometry": { "type": "Point", "coordinates": [ 862698.738605552702211, 6099695.605535330250859 ] } },
{ "type": "Feature", "properties": { "plz": "65824", "Jahr": "2020", "Ort": "Schwalbach", "Land": "DE" }, "geometry": { "type": "Point", "coordinates": [ 942835.437752206227742, 6532583.548422055318952 ] } },
{ "type": "Feature", "properties": { "plz": "65760", "Jahr": "2020", "Ort": "Schwalbach am Taunus", "Land": "DE" }, "geometry": { "type": "Point", "coordinates": [ 950208.809159300755709, 6472093.373861228115857 ] } },
{ "type": "Feature", "properties": { "plz": "29690", "Jahr": "2020", "Ort": "Schwarmstedt", "Land": "DE" }, "geometry": { "type": "Point", "coordinates": [ 1070478.146956625860184, 6923499.379826477728784 ] } },
{ "type": "Feature", "properties": { "plz": "2224", "Jahr": "2020", "Ort": "Sulz im Weinviertel", "Land": "AT" }, "geometry": { "type": "Point", "coordinates": [ 1856617.825950398342684, 6189488.49277326837182 ] } },
{ "type": "Feature", "properties": { "plz": "26264", "Jahr": "2020", "Ort": "Südbrookmerland", "Land": "DE" }, "geometry": { "type": "Point", "coordinates": [ 824555.99139378266409, 7071511.629626327194273 ] } },
{ "type": "Feature", "properties": { "plz": "72072", "Jahr": "2020", "Ort": "Tübingen", "Land": "DE" }, "geometry": { "type": "Point", "coordinates": [ 1007794.246689017512836, 6194553.859186098910868 ] } },
{ "type": "Feature", "properties": { "plz": "59425", "Jahr": "2020", "Ort": "Unna", "Land": "DE" }, "geometry": { "type": "Point", "coordinates": [ 850486.135530585772358, 6723821.703645275905728 ] } },
{ "type": "Feature", "properties": { "plz": "53343", "Jahr": "2020", "Ort": "Wachtberg", "Land": "DE" }, "geometry": { "type": "Point", "coordinates": [ 792056.143403357942589, 6555471.706938327290118 ] } },
{ "type": "Feature", "properties": { "plz": "79183", "Jahr": "2020", "Ort": "Waldkirch", "Land": "DE" }, "geometry": { "type": "Point", "coordinates": [ 1035846.946922460687347, 6018388.194229429587722 ] } },
{ "type": "Feature", "properties": { "plz": "99423", "Jahr": "2020", "Ort": "Weimar", "Land": "DE" }, "geometry": { "type": "Point", "coordinates": [ 1261311.281426103785634, 6617906.150852373801172 ] } },
{ "type": "Feature", "properties": { "plz": "64331", "Jahr": "2020", "Ort": "Weiterstadt", "Land": "DE" }, "geometry": { "type": "Point", "coordinates": [ 955574.647533105220646, 6430051.137662066146731 ] } },
{ "type": "Feature", "properties": { "plz": "35435", "Jahr": "2020", "Ort": "Wettenberg", "Land": "DE" }, "geometry": { "type": "Point", "coordinates": [ 962871.636135310633108, 6555471.828242247924209 ] } },
{ "type": "Feature", "properties": { "plz": "82234", "Jahr": "2020", "Ort": "Weßling", "Land": "DE" }, "geometry": { "type": "Point", "coordinates": [ 1252610.620653109624982, 6119621.800559531897306 ] } },
{ "type": "Feature", "properties": { "plz": "37213", "Jahr": "2020", "Ort": "Witzenhausen", "Land": "DE" }, "geometry": { "type": "Point", "coordinates": [ 1097348.80317704193294, 6682047.969406140968204 ] } },
{ "type": "Feature", "properties": { "plz": "38440", "Jahr": "2020", "Ort": "Wolfsburg", "Land": "DE" }, "geometry": { "type": "Point", "coordinates": [ 1201049.760626924457029, 6876394.697587232105434 ] } },
{ "type": "Feature", "properties": { "plz": "15806", "Jahr": "2020", "Ort": "Zossen", "Land": "DE" }, "geometry": { "type": "Point", "coordinates": [ 1497124.126198936020955, 6839248.120353237725794 ] } },
{ "type": "Feature", "properties": { "plz": "28759", "Jahr": "2020", "Ort": "Bremen", "Land": "DE" }, "geometry": { "type": "Point", "coordinates": [ 885801.604341825237498, 6710814.436708419583738 ] } }
]
}
