{
"type": "FeatureCollection",
"name": "points2013",
"crs": { "type": "name", "properties": { "name": "urn:ogc:def:crs:EPSG::3857" } },
"features": [
{ "type": "Feature", "properties": { "plz": "5000", "Jahr": "2013", "Ort": "Aarau", "Land": "" }, "geometry": { "type": "Point", "coordinates": [ 896071.947936397977173, 6006594.308225678279996 ] } },
{ "type": "Feature", "properties": { "plz": "8134", "Jahr": "2013", "Ort": "Adliswil", "Land": "" }, "geometry": { "type": "Point", "coordinates": [ 948754.05501319852192, 5993400.892170214094222 ] } },
{ "type": "Feature", "properties": { "plz": "86163", "Jahr": "2013", "Ort": "Augsburg", "Land": "" }, "geometry": { "type": "Point", "coordinates": [ 1195254.095923966728151, 6166132.516614004969597 ] } },
{ "type": "Feature", "properties": { "plz": "4001", "Jahr": "2013", "Ort": "Basel", "Land": "" }, "geometry": { "type": "Point", "coordinates": [ 845020.426610157359391, 6034007.882377845235169 ] } },
{ "type": "Feature", "properties": { "plz": "95448", "Jahr": "2013", "Ort": "Bayreuth", "Land": "" }, "geometry": { "type": "Point", "coordinates": [ 1287022.074970475630835, 6426215.98953140899539 ] } },
{ "type": "Feature", "properties": { "plz": "8962", "Jahr": "2013", "Ort": "Bergdietikon", "Land": "" }, "geometry": { "type": "Point", "coordinates": [ 932728.289019246469252, 6006374.304978420957923 ] } },
{ "type": "Feature", "properties": { "plz": "10961", "Jahr": "2013", "Ort": "Berlin", "Land": "" }, "geometry": { "type": "Point", "coordinates": [ 1492658.837575213285163, 6890920.341863920912147 ] } },
{ "type": "Feature", "properties": { "plz": "6330", "Jahr": "2013", "Ort": "Cham", "Land": "" }, "geometry": { "type": "Point", "coordinates": [ 940610.490509395836852, 5975567.247214640490711 ] } },
{ "type": "Feature", "properties": { "plz": "7000", "Jahr": "2013", "Ort": "Chur", "Land": "" }, "geometry": { "type": "Point", "coordinates": [ 1060972.675137822516263, 5918730.837731644511223 ] } },
{ "type": "Feature", "properties": { "plz": "96450", "Jahr": "2013", "Ort": "Coburg", "Land": "" }, "geometry": { "type": "Point", "coordinates": [ 1218413.768326093209907, 6492293.07710225880146 ] } },
{ "type": "Feature", "properties": { "plz": "27478", "Jahr": "2013", "Ort": "Cuxhaven", "Land": "" }, "geometry": { "type": "Point", "coordinates": [ 951972.73150653031189, 7090104.335223991423845 ] } },
{ "type": "Feature", "properties": { "plz": "8447", "Jahr": "2013", "Ort": "Dachsen", "Land": "" }, "geometry": { "type": "Point", "coordinates": [ 960090.705935604870319, 6051334.654133770614862 ] } },
{ "type": "Feature", "properties": { "plz": "9642", "Jahr": "2013", "Ort": "Ebnat-Kappel", "Land": "" }, "geometry": { "type": "Point", "coordinates": [ 1016526.625743513111956, 5982158.783404856920242 ] } },
{ "type": "Feature", "properties": { "plz": "8424", "Jahr": "2013", "Ort": "Embrach", "Land": "" }, "geometry": { "type": "Point", "coordinates": [ 957251.465960250003263, 6026217.711316473782063 ] } },
{ "type": "Feature", "properties": { "plz": "79312", "Jahr": "2013", "Ort": "Emmendingen", "Land": "" }, "geometry": { "type": "Point", "coordinates": [ 879163.728108756477013, 6132022.535326638258994 ] } },
{ "type": "Feature", "properties": { "plz": "53879", "Jahr": "2013", "Ort": "Euskirchen", "Land": "" }, "geometry": { "type": "Point", "coordinates": [ 739885.438639083644375, 6538595.681140344589949 ] } },
{ "type": "Feature", "properties": { "plz": "6800", "Jahr": "2013", "Ort": "Feldkirch", "Land": "" }, "geometry": { "type": "Point", "coordinates": [ 1076274.632301065837964, 5986092.973412443883717 ] } },
{ "type": "Feature", "properties": { "plz": "8500", "Jahr": "2013", "Ort": "Frauenfeld", "Land": "" }, "geometry": { "type": "Point", "coordinates": [ 990554.331322704558261, 6034195.323253033682704 ] } },
{ "type": "Feature", "properties": { "plz": "79104", "Jahr": "2013", "Ort": "Freiburg", "Land": "" }, "geometry": { "type": "Point", "coordinates": [ 870668.258933970006183, 6106044.738733065314591 ] } },
{ "type": "Feature", "properties": { "plz": "1700", "Jahr": "2013", "Ort": "Fribourg", "Land": "" }, "geometry": { "type": "Point", "coordinates": [ 797082.276471254182979, 5910285.568260833621025 ] } },
{ "type": "Feature", "properties": { "plz": "8750", "Jahr": "2013", "Ort": "Glarus", "Land": "" }, "geometry": { "type": "Point", "coordinates": [ 999820.331955787609331, 5945854.030451217666268 ] } },
{ "type": "Feature", "properties": { "plz": "8010", "Jahr": "2013", "Ort": "Graz", "Land": "" }, "geometry": { "type": "Point", "coordinates": [ 1718432.451842829585075, 5953394.106567514128983 ] } },
{ "type": "Feature", "properties": { "plz": "8606", "Jahr": "2013", "Ort": "Greifensee", "Land": "" }, "geometry": { "type": "Point", "coordinates": [ 966555.176154405111447, 6002762.426565910689533 ] } },
{ "type": "Feature", "properties": { "plz": "9100", "Jahr": "2013", "Ort": "Herisau", "Land": "" }, "geometry": { "type": "Point", "coordinates": [ 1032497.558469698880799, 6004973.614467620849609 ] } },
{ "type": "Feature", "properties": { "plz": "76137", "Jahr": "2013", "Ort": "Karlsruhe", "Land": "" }, "geometry": { "type": "Point", "coordinates": [ 936131.780962786520831, 6259483.752305340021849 ] } },
{ "type": "Feature", "properties": { "plz": "8451", "Jahr": "2013", "Ort": "Kleinandelfingen", "Land": "" }, "geometry": { "type": "Point", "coordinates": [ 965406.868206448853016, 6042584.415881314314902 ] } },
{ "type": "Feature", "properties": { "plz": "56073", "Jahr": "2013", "Ort": "Koblenz", "Land": "" }, "geometry": { "type": "Point", "coordinates": [ 917694.132134336978197, 6042152.890544027090073 ] } },
{ "type": "Feature", "properties": { "plz": "1015", "Jahr": "2013", "Ort": "Lausanne", "Land": "" }, "geometry": { "type": "Point", "coordinates": [ 740790.31435753707774, 5869407.69056499004364 ] } },
{ "type": "Feature", "properties": { "plz": "9620", "Jahr": "2013", "Ort": "Lichtensteig", "Land": "" }, "geometry": { "type": "Point", "coordinates": [ 1012823.034979558899067, 5995337.763388408347964 ] } },
{ "type": "Feature", "properties": { "plz": "4410", "Jahr": "2013", "Ort": "Liestal", "Land": "" }, "geometry": { "type": "Point", "coordinates": [ 859586.171441531740129, 6022404.953274304978549 ] } },
{ "type": "Feature", "properties": { "plz": "1110", "Jahr": "2013", "Ort": "Morges", "Land": "" }, "geometry": { "type": "Point", "coordinates": [ 723141.147343365824781, 5863279.637626512907445 ] } },
{ "type": "Feature", "properties": { "plz": "4132", "Jahr": "2013", "Ort": "Muttenz", "Land": "" }, "geometry": { "type": "Point", "coordinates": [ 850964.301720305229537, 6028657.963316701352596 ] } },
{ "type": "Feature", "properties": { "plz": "2560", "Jahr": "2013", "Ort": "Nidau", "Land": "" }, "geometry": { "type": "Point", "coordinates": [ 806341.848290100111626, 5962906.584485759027302 ] } },
{ "type": "Feature", "properties": { "plz": "5702", "Jahr": "2013", "Ort": "Niederlenz", "Land": "" }, "geometry": { "type": "Point", "coordinates": [ 909540.385122738196515, 6009048.846662975847721 ] } },
{ "type": "Feature", "properties": { "plz": "26123", "Jahr": "2013", "Ort": "Oldenburg", "Land": "" }, "geometry": { "type": "Point", "coordinates": [ 936091.381147411419079, 6981571.707579768262804 ] } },
{ "type": "Feature", "properties": { "plz": "94032", "Jahr": "2013", "Ort": "Passau", "Land": "" }, "geometry": { "type": "Point", "coordinates": [ 1488212.229653916787356, 6200888.663561329245567 ] } },
{ "type": "Feature", "properties": { "plz": "8640", "Jahr": "2013", "Ort": "Rapperswil", "Land": "" }, "geometry": { "type": "Point", "coordinates": [ 825889.379510959261097, 5952129.258719401434064 ] } },
{ "type": "Feature", "properties": { "plz": "45657", "Jahr": "2013", "Ort": "Recklinghausen", "Land": "" }, "geometry": { "type": "Point", "coordinates": [ 797863.484453079523519, 6740502.205104413442314 ] } },
{ "type": "Feature", "properties": { "plz": "5020", "Jahr": "2013", "Ort": "Salzburg", "Land": "" }, "geometry": { "type": "Point", "coordinates": [ 1449619.563953455304727, 6073079.299762381240726 ] } },
{ "type": "Feature", "properties": { "plz": "8603", "Jahr": "2013", "Ort": "Schwerzenbach", "Land": "" }, "geometry": { "type": "Point", "coordinates": [ 963760.831575774238445, 6005328.575560339726508 ] } },
{ "type": "Feature", "properties": { "plz": "6430", "Jahr": "2013", "Ort": "Schwyz", "Land": "" }, "geometry": { "type": "Point", "coordinates": [ 966257.792748898966238, 5946401.332678423263133 ] } },
{ "type": "Feature", "properties": { "plz": "4500", "Jahr": "2013", "Ort": "Solothurn", "Land": "" }, "geometry": { "type": "Point", "coordinates": [ 838414.16324704780709, 5976844.565558323636651 ] } },
{ "type": "Feature", "properties": { "plz": "9012", "Jahr": "2013", "Ort": "St. Gallen", "Land": "" }, "geometry": { "type": "Point", "coordinates": [ 1043872.857372475322336, 6011465.51670022495091 ] } },
{ "type": "Feature", "properties": { "plz": "7015", "Jahr": "2013", "Ort": "Tamins", "Land": "" }, "geometry": { "type": "Point", "coordinates": [ 1046240.592898776405491, 5920634.353322722949088 ] } },
{ "type": "Feature", "properties": { "plz": "4106", "Jahr": "2013", "Ort": "Therwil", "Land": "" }, "geometry": { "type": "Point", "coordinates": [ 841363.432649913011119, 6024241.247238432988524 ] } },
{ "type": "Feature", "properties": { "plz": "3601", "Jahr": "2013", "Ort": "Thun", "Land": "" }, "geometry": { "type": "Point", "coordinates": [ 849004.394926505396143, 5900955.690985262393951 ] } },
{ "type": "Feature", "properties": { "plz": "59425", "Jahr": "2013", "Ort": "Unna", "Land": "" }, "geometry": { "type": "Point", "coordinates": [ 850486.135530585772358, 6723821.703645275905728 ] } },
{ "type": "Feature", "properties": { "plz": "8610", "Jahr": "2013", "Ort": "Uster", "Land": "" }, "geometry": { "type": "Point", "coordinates": [ 971091.101337404223159, 6000637.375843469053507 ] } },
{ "type": "Feature", "properties": { "plz": "8620", "Jahr": "2013", "Ort": "Wetzikon", "Land": "" }, "geometry": { "type": "Point", "coordinates": [ 980391.639716310426593, 5995918.828753048554063 ] } },
{ "type": "Feature", "properties": { "plz": "1090", "Jahr": "2013", "Ort": "Wien", "Land": "" }, "geometry": { "type": "Point", "coordinates": [ 1823651.1551424539648, 6143079.426215002313256 ] } },
{ "type": "Feature", "properties": { "plz": "8400", "Jahr": "2013", "Ort": "Winterthur", "Land": "" }, "geometry": { "type": "Point", "coordinates": [ 972413.93839955306612, 6024317.218557615764439 ] } },
{ "type": "Feature", "properties": { "plz": "4105", "Jahr": "2013", "Ort": "Leipzig", "Land": "DE" }, "geometry": { "type": "Point", "coordinates": [ 1377458.702249818015844, 6681742.066951546818018 ] } },
{ "type": "Feature", "properties": { "plz": "33615", "Jahr": "2013", "Ort": "Bielefeld", "Land": "DE" }, "geometry": { "type": "Point", "coordinates": [ 949361.840842318721116, 6803724.526674408465624 ] } },
{ "type": "Feature", "properties": { "plz": "53111", "Jahr": "2013", "Ort": "Bonn", "Land": "DE" }, "geometry": { "type": "Point", "coordinates": [ 790329.838355590589345, 6574814.99988576490432 ] } },
{ "type": "Feature", "properties": { "plz": "44227", "Jahr": "2013", "Ort": "Dortmund", "Land": "DE" }, "geometry": { "type": "Point", "coordinates": [ 830406.829758459120058, 6712567.80735017824918 ] } },
{ "type": "Feature", "properties": { "plz": "1069", "Jahr": "2013", "Ort": "Dresden", "Land": "DE" }, "geometry": { "type": "Point", "coordinates": [ 1529271.412777805933729, 6630057.386139404028654 ] } },
{ "type": "Feature", "properties": { "plz": "45307", "Jahr": "2013", "Ort": "Essen", "Land": "DE" }, "geometry": { "type": "Point", "coordinates": [ 780795.020977550768293, 6702884.02354497089982 ] } },
{ "type": "Feature", "properties": { "plz": "60598", "Jahr": "2013", "Ort": "Frankfurt", "Land": "DE" }, "geometry": { "type": "Point", "coordinates": [ 966390.697322571766563, 6465533.549639035947621 ] } },
{ "type": "Feature", "properties": { "plz": "30659", "Jahr": "2013", "Ort": "Hannover", "Land": "DE" }, "geometry": { "type": "Point", "coordinates": [ 1084360.437612327747047, 6868157.863262252882123 ] } },
{ "type": "Feature", "properties": { "plz": "7743", "Jahr": "2013", "Ort": "Jena", "Land": "DE" }, "geometry": { "type": "Point", "coordinates": [ 1289970.812811305979267, 6608612.187172736041248 ] } },
{ "type": "Feature", "properties": { "plz": "32657", "Jahr": "2013", "Ort": "Lemgo", "Land": "DE" }, "geometry": { "type": "Point", "coordinates": [ 990902.571270207525231, 6805212.247558849863708 ] } },
{ "type": "Feature", "properties": { "plz": "14482", "Jahr": "2013", "Ort": "Potsdam", "Land": "DE" }, "geometry": { "type": "Point", "coordinates": [ 1453551.473464054521173, 6873006.992701071314514 ] } },
{ "type": "Feature", "properties": { "plz": "70184", "Jahr": "2013", "Ort": "Stuttgart", "Land": "DE" }, "geometry": { "type": "Point", "coordinates": [ 1021801.195468815392815, 6237288.718777135945857 ] } },
{ "type": "Feature", "properties": { "plz": "53840", "Jahr": "2013", "Ort": "Troisdorf", "Land": "DE" }, "geometry": { "type": "Point", "coordinates": [ 797577.04230793484021, 6588533.752889757044613 ] } },
{ "type": "Feature", "properties": { "plz": "18437", "Jahr": "2013", "Ort": "Stralsund", "Land": "DE" }, "geometry": { "type": "Point", "coordinates": [ 1453884.278087855316699, 7227273.888528998941183 ] } },
{ "type": "Feature", "properties": { "plz": "1077", "Jahr": "2013", "Ort": "Amsterdam", "Land": "NL" }, "geometry": { "type": "Point", "coordinates": [ 545105.243107498856261, 6867661.03498587012291 ] } },
{ "type": "Feature", "properties": { "plz": "55239", "Jahr": "2013", "Ort": "Gau-Odernheim", "Land": "DE" }, "geometry": { "type": "Point", "coordinates": [ 912226.97642877115868, 6408871.941321934573352 ] } },
{ "type": "Feature", "properties": { "plz": "26441", "Jahr": "2013", "Ort": "Jever", "Land": "DE" }, "geometry": { "type": "Point", "coordinates": [ 879261.059342648251913, 7089623.96009664889425 ] } },
{ "type": "Feature", "properties": { "plz": "67245", "Jahr": "2013", "Ort": "Lambsheim", "Land": "DE" }, "geometry": { "type": "Point", "coordinates": [ 922463.581762534216978, 6361934.15735571552068 ] } },
{ "type": "Feature", "properties": { "plz": "16225", "Jahr": "2013", "Ort": "Eberswalde", "Land": "DE" }, "geometry": { "type": "Point", "coordinates": [ 1536014.739027243573219, 6952456.089343910105526 ] } },
{ "type": "Feature", "properties": { "plz": "51399", "Jahr": "2013", "Ort": "Burscheid", "Land": "DE" }, "geometry": { "type": "Point", "coordinates": [ 792691.782912535476498, 6635855.460857014171779 ] } },
{ "type": "Feature", "properties": { "plz": "91052", "Jahr": "2013", "Ort": "Erlangen", "Land": "DE" }, "geometry": { "type": "Point", "coordinates": [ 1224889.875771309714764, 6376851.993225351907313 ] } },
{ "type": "Feature", "properties": { "plz": "55116", "Jahr": "2013", "Ort": "Mainz", "Land": "DE" }, "geometry": { "type": "Point", "coordinates": [ 921223.804065825883299, 6446513.084015307947993 ] } },
{ "type": "Feature", "properties": { "plz": "44577", "Jahr": "2013", "Ort": "Castrop-Rauxel", "Land": "DE" }, "geometry": { "type": "Point", "coordinates": [ 813893.032443441799842, 6721755.220662320964038 ] } },
{ "type": "Feature", "properties": { "plz": "79227", "Jahr": "2013", "Ort": "Schallstadt", "Land": "DE" }, "geometry": { "type": "Point", "coordinates": [ 862682.27810070081614, 6099627.286127944476902 ] } },
{ "type": "Feature", "properties": { "plz": "70794", "Jahr": "2013", "Ort": "Filderstadt", "Land": "DE" }, "geometry": { "type": "Point", "coordinates": [ 1026137.62030077946838, 6220162.37233140040189 ] } },
{ "type": "Feature", "properties": { "plz": "54290", "Jahr": "2013", "Ort": "Trier", "Land": "DE" }, "geometry": { "type": "Point", "coordinates": [ 738691.906717089004815, 6403353.762120180763304 ] } },
{ "type": "Feature", "properties": { "plz": "9114", "Jahr": "2013", "Ort": "Chemnitz", "Land": "DE" }, "geometry": { "type": "Point", "coordinates": [ 1438311.670357926748693, 6591437.31671563629061 ] } },
{ "type": "Feature", "properties": { "plz": "78256", "Jahr": "2013", "Ort": "Steisslingen", "Land": "DE" }, "geometry": { "type": "Point", "coordinates": [ 993825.885942210792564, 6073565.878363391384482 ] } },
{ "type": "Feature", "properties": { "plz": "45699", "Jahr": "2013", "Ort": "Herten", "Land": "DE" }, "geometry": { "type": "Point", "coordinates": [ 794502.364158073207363, 6727114.439178002998233 ] } },
{ "type": "Feature", "properties": { "plz": "82110", "Jahr": "2013", "Ort": "Germering", "Land": "DE" }, "geometry": { "type": "Point", "coordinates": [ 1265267.136118883965537, 6129210.400247448123991 ] } },
{ "type": "Feature", "properties": { "plz": "4052", "Jahr": "2013", "Ort": "Ansfelden", "Land": "AT" }, "geometry": { "type": "Point", "coordinates": [ 1590742.960679549723864, 6141741.407856513746083 ] } },
{ "type": "Feature", "properties": { "plz": "3008", "Jahr": "2013", "Ort": "Bern", "Land": "CH" }, "geometry": { "type": "Point", "coordinates": [ 829423.684150047367439, 5933590.07255619764328 ] } },
{ "type": "Feature", "properties": { "plz": "8117", "Jahr": "2013", "Ort": "Faellanden", "Land": "CH" }, "geometry": { "type": "Point", "coordinates": [ 961651.11562084313482, 6002881.403745294548571 ] } },
{ "type": "Feature", "properties": { "plz": "8136", "Jahr": "2013", "Ort": "Gattikon", "Land": "CH" }, "geometry": { "type": "Point", "coordinates": [ 951635.052009789738804, 5988594.772359061054885 ] } },
{ "type": "Feature", "properties": { "plz": "35394", "Jahr": "2013", "Ort": "Giessen", "Land": "DE" }, "geometry": { "type": "Point", "coordinates": [ 965620.912442218279466, 6548299.688531760126352 ] } },
{ "type": "Feature", "properties": { "plz": "8605", "Jahr": "2013", "Ort": "Gutenswil", "Land": "CH" }, "geometry": { "type": "Point", "coordinates": [ 970449.554513263283297, 6005182.806473744101822 ] } },
{ "type": "Feature", "properties": { "plz": "83607", "Jahr": "2013", "Ort": "Holzkirchen", "Land": "CH" }, "geometry": { "type": "Point", "coordinates": [ 1302323.56432425766252, 6087446.081083725206554 ] } },
{ "type": "Feature", "properties": { "plz": "8645", "Jahr": "2013", "Ort": "Jona", "Land": "CH" }, "geometry": { "type": "Point", "coordinates": [ 983796.296727257780731, 5979615.188147161155939 ] } },
{ "type": "Feature", "properties": { "plz": "1723", "Jahr": "2013", "Ort": "Kesselsdorf", "Land": "DE" }, "geometry": { "type": "Point", "coordinates": [ 1513170.562581502599642, 6627035.196233472786844 ] } },
{ "type": "Feature", "properties": { "plz": "9490", "Jahr": "2013", "Ort": "Vaduz", "Land": "LI" }, "geometry": { "type": "Point", "coordinates": [ 1060042.260723887709901, 5964806.564679646864533 ] } },
{ "type": "Feature", "properties": { "plz": "Wabern", "Jahr": "2013", "Ort": "Wabern", "Land": "CH" }, "geometry": { "type": "Point", "coordinates": [ 829333.265165903023444, 5930475.190798015333712 ] } },
{ "type": "Feature", "properties": { "plz": "6846", "Jahr": "2013", "Ort": "Dessau-Roßlau", "Land": "DE" }, "geometry": { "type": "Point", "coordinates": [ 1362536.812043484766036, 6769785.425792259164155 ] } },
{ "type": "Feature", "properties": { "plz": "8108", "Jahr": "2013", "Ort": "Dällikon", "Land": "CH" }, "geometry": { "type": "Point", "coordinates": [ 939443.288573572761379, 6014182.385559431277215 ] } },
{ "type": "Feature", "properties": { "plz": "52353", "Jahr": "2013", "Ort": "Düren", "Land": "DE" }, "geometry": { "type": "Point", "coordinates": [ 721477.901061839074828, 6586359.235628978349268 ] } },
{ "type": "Feature", "properties": { "plz": "40233", "Jahr": "2013", "Ort": "Düsseldorf", "Land": "DE" }, "geometry": { "type": "Point", "coordinates": [ 754168.984068992547691, 6661025.866485238075256 ] } },
{ "type": "Feature", "properties": { "plz": "9224", "Jahr": "2013", "Ort": "Grüna", "Land": "DE" }, "geometry": { "type": "Point", "coordinates": [ 1423783.511326669482514, 6587923.401086117140949 ] } },
{ "type": "Feature", "properties": { "plz": "37073", "Jahr": "2013", "Ort": "Göttingen", "Land": "DE" }, "geometry": { "type": "Point", "coordinates": [ 1106079.669283147202805, 6716129.561215555295348 ] } },
{ "type": "Feature", "properties": { "plz": "81667", "Jahr": "2013", "Ort": "München", "Land": "DE" }, "geometry": { "type": "Point", "coordinates": [ 1288676.367592407157645, 6129762.864961951039732 ] } },
{ "type": "Feature", "properties": { "plz": "48155", "Jahr": "2013", "Ort": "Münster", "Land": "DE" }, "geometry": { "type": "Point", "coordinates": [ 848732.142905949731357, 6793271.635982315056026 ] } },
{ "type": "Feature", "properties": { "plz": "8630", "Jahr": "2013", "Ort": "Rüti", "Land": "CH" }, "geometry": { "type": "Point", "coordinates": [ 1003583.19247878016904, 5931775.485733257606626 ] } },
{ "type": "Feature", "properties": { "plz": "72072", "Jahr": "2013", "Ort": "Tübingen", "Land": "DE" }, "geometry": { "type": "Point", "coordinates": [ 1007560.416696336702444, 6194363.601888979785144 ] } },
{ "type": "Feature", "properties": { "plz": "8022", "Jahr": "2013", "Ort": "Wädenswil", "Land": "CH" }, "geometry": { "type": "Point", "coordinates": [ 965371.967516702832654, 5979438.514291798695922 ] } },
{ "type": "Feature", "properties": { "plz": "8004", "Jahr": "2013", "Ort": "Zürich", "Land": "CH" }, "geometry": { "type": "Point", "coordinates": [ 950862.448446298134513, 6003359.303082348778844 ] } }
]
}
